{
"type": "FeatureCollection",
"name": "basemap",
"crs": { "type": "name", "properties": { "name": "urn:ogc:def:crs:OGC:1.3:CRS84" } },
"features": [
{ "type": "Feature", "properties": { "name": "Ontario" }, "geometry": { "type": "Polygon", "coordinates": [ [ [ -93.0, 48.61236 ], [ -92.73265, 48.53182 ], [ -92.50058, 48.43534 ], [ -92.41459, 48.27659 ], [ -92.34844, 48.27659 ], [ -92.29868, 48.32888 ], [ -92.17178, 48.3384 ], [ -92.00515, 48.30183 ], [ -91.8584, 48.19757 ], [ -91.51831, 48.05831 ], [ -91.38724, 48.05854 ], [ -91.22065, 48.10461 ], [ -91.04348, 48.19369 ], [ -90.91605, 48.20915 ], [ -90.84032, 48.20052 ], [ -90.79732, 48.13106 ], [ -90.74441, 48.10461 ], [ -90.32014, 48.09918 ], [ -90.09178, 48.1181 ], [ -89.99365, 48.01531 ], [ -89.90104, 47.99547 ], [ -89.77537, 48.01531 ], [ -89.45565, 47.99622 ], [ -89.27317, 48.01997 ], [ -88.61176, 48.26401 ], [ -88.3782, 48.3031 ], [ -86.42857, 47.54007 ], [ -84.87597, 46.8999 ], [ -84.77941, 46.63728 ], [ -84.56175, 46.45737 ], [ -84.50158, 46.46187 ], [ -84.40171, 46.51561 ], [ -84.19217, 46.54956 ], [ -84.12522, 46.52723 ], [ -84.15047, 46.44479 ], [ -84.08841, 46.22653 ], [ -83.97779, 46.08491 ], [ -83.91304, 46.07289 ], [ -83.7632, 46.10907 ], [ -83.61595, 46.11683 ], [ -83.48015, 46.02375 ], [ -83.46947, 45.99468 ], [ -83.59269, 45.81715 ], [ -82.55108, 45.34736 ], [ -82.13785, 43.57088 ], [ -82.40819, 43.07264 ], [ -82.48835, 42.73951 ], [ -82.54532, 42.62468 ], [ -82.86775, 42.38521 ], [ -83.07314, 42.30031 ], [ -83.14967, 42.14192 ], [ -83.14195, 41.97586 ], [ -83.02996, 41.83297 ], [ -82.69001, 41.67518 ], [ -82.43907, 41.67487 ], [ -81.27764, 42.20918 ], [ -80.24758, 42.366 ], [ -80.0, 42.45425 ], [ -80.0, 49.0 ], [ -93.0, 49.0 ], [ -93.0, 48.61236 ] ] ] } },
{ "type": "Feature", "properties": { "name": "Illinois" }, "geometry": { "type": "Polygon", "coordinates": [ [ [ -87.52637, 40.67802 ], [ -87.52108, 41.76076 ], [ -87.22126, 41.76073 ], [ -87.03913, 42.4928 ], [ -90.65058, 42.51298 ], [ -90.58963, 42.4448 ], [ -90.48473, 42.38326 ], [ -90.42504, 42.32566 ], [ -90.41049, 42.27207 ], [ -90.34657, 42.21484 ], [ -90.23321, 42.15402 ], [ -90.16752, 42.1003 ], [ -90.14943, 42.05371 ], [ -90.17661, 41.88364 ], [ -90.31924, 41.70965 ], [ -90.34753, 41.63203 ], [ -90.43667, 41.56036 ], [ -90.58673, 41.49473 ], [ -90.93876, 41.42559 ], [ -91.04811, 41.3691 ], [ -91.08211, 41.28032 ], [ -91.06651, 41.20591 ], [ -91.00133, 41.14597 ], [ -90.96383, 41.08253 ], [ -90.95401, 41.01558 ], [ -91.10213, 40.74979 ], [ -91.21513, 40.64956 ], [ -91.35816, 40.58065 ], [ -87.52637, 40.67802 ] ] ] } },
{ "type": "Feature", "properties": { "name": "Indiana" }, "geometry": { "type": "Polygon", "coordinates": [ [ [ -84.80698, 40.6702 ], [ -84.7964, 41.75973 ], [ -87.52108, 41.76076 ], [ -87.52637, 40.67802 ], [ -84.80698, 40.6702 ] ] ] } },
{ "type": "Feature", "properties": { "name": "Michigan" }, "geometry": { "type": "Polygon", "coordinates": [ [ [ -90.41259, 46.58527 ], [ -90.39234, 46.54896 ], [ -90.34088, 46.55845 ], [ -90.31823, 46.53664 ], [ -90.23038, 46.50977 ], [ -90.11855, 46.34166 ], [ -89.11929, 46.14919 ], [ -88.83734, 46.03662 ], [ -88.49299, 46.01352 ], [ -88.15174, 45.94541 ], [ -88.09648, 45.87841 ], [ -88.11612, 45.8158 ], [ -87.92254, 45.75997 ], [ -87.83983, 45.71798 ], [ -87.80908, 45.68604 ], [ -87.79456, 45.59603 ], [ -87.87491, 45.38539 ], [ -87.84182, 45.36079 ], [ -87.69639, 45.38283 ], [ -87.66423, 45.37129 ], [ -87.72092, 45.24277 ], [ -87.71885, 45.20127 ], [ -87.65361, 45.1218 ], [ -87.45954, 45.068 ], [ -87.4198, 45.18386 ], [ -87.24438, 45.28979 ], [ -87.11527, 45.45236 ], [ -86.77429, 45.45236 ], [ -86.26452, 45.2269 ], [ -86.53595, 45.04149 ], [ -86.7147, 44.8462 ], [ -87.03249, 44.09147 ], [ -87.14173, 43.6578 ], [ -87.15501, 43.32676 ], [ -87.03913, 42.4928 ], [ -87.22126, 41.76073 ], [ -84.7964, 41.75973 ], [ -84.79611, 41.70143 ], [ -83.4642, 41.73945 ], [ -83.12167, 41.95 ], [ -83.14195, 41.97586 ], [ -83.14967, 42.14192 ], [ -83.07314, 42.30031 ], [ -82.86775, 42.38521 ], [ -82.54532, 42.62468 ], [ -82.48835, 42.73951 ], [ -82.40819, 43.07264 ], [ -82.13785, 43.57088 ], [ -82.55108, 45.34736 ], [ -83.59269, 45.81715 ], [ -83.46947, 45.99468 ], [ -83.48015, 46.02375 ], [ -83.61595, 46.11683 ], [ -83.7632, 46.10907 ], [ -83.91304, 46.07289 ], [ -83.97779, 46.08491 ], [ -84.08841, 46.22653 ], [ -84.15047, 46.44479 ], [ -84.12522, 46.52723 ], [ -84.14948, 46.54277 ], [ -84.40171, 46.51561 ], [ -84.50158, 46.46187 ], [ -84.56175, 46.45737 ], [ -84.77941, 46.63728 ], [ -84.87597, 46.8999 ], [ -86.42857, 47.54007 ], [ -88.3782, 48.3031 ], [ -88.61176, 48.26401 ], [ -89.27317, 48.01997 ], [ -89.49838, 47.9979 ], [ -90.41259, 46.58527 ] ] ] } },
{ "type": "Feature", "properties": { "name": "Minnesota" }, "geometry": { "type": "Polygon", "coordinates": [ [ [ -93.0, 43.50183 ], [ -91.24525, 43.50241 ], [ -91.27843, 43.79743 ], [ -91.31992, 43.93628 ], [ -91.38269, 43.9908 ], [ -91.71643, 44.12646 ], [ -91.84098, 44.19416 ], [ -91.9123, 44.28887 ], [ -92.05512, 44.39982 ], [ -92.14858, 44.44525 ], [ -92.24031, 44.46214 ], [ -92.31309, 44.4978 ], [ -92.36694, 44.55227 ], [ -92.44159, 44.58658 ], [ -92.53703, 44.60079 ], [ -92.64354, 44.64534 ], [ -92.76981, 44.72585 ], [ -92.79921, 44.79003 ], [ -92.7634, 44.93426 ], [ -92.79304, 45.07136 ], [ -92.75906, 45.11058 ], [ -92.75392, 45.27757 ], [ -92.68581, 45.38054 ], [ -92.6826, 45.43309 ], [ -92.70702, 45.49376 ], [ -92.75746, 45.54324 ], [ -92.89249, 45.59476 ], [ -92.89652, 45.65858 ], [ -92.69395, 45.90901 ], [ -92.29263, 46.08437 ], [ -92.29165, 46.66072 ], [ -92.224, 46.67102 ], [ -92.12535, 46.76301 ], [ -91.96492, 46.72978 ], [ -91.46836, 46.92509 ], [ -90.65402, 47.3091 ], [ -89.95768, 47.28714 ], [ -89.49838, 47.9979 ], [ -89.77537, 48.01531 ], [ -89.90104, 47.99547 ], [ -89.99365, 48.01531 ], [ -90.09178, 48.1181 ], [ -90.32014, 48.09918 ], [ -90.74441, 48.10461 ], [ -90.79732, 48.13106 ], [ -90.84032, 48.20052 ], [ -90.91605, 48.20915 ], [ -91.04348, 48.19369 ], [ -91.22065, 48.10461 ], [ -91.38724, 48.05854 ], [ -91.51831, 48.05831 ], [ -91.8584, 48.19757 ], [ -92.00515, 48.30183 ], [ -92.17178, 48.3384 ], [ -92.29868, 48.32888 ], [ -92.34844, 48.27659 ], [ -92.41459, 48.27659 ], [ -92.50058, 48.43534 ], [ -92.73265, 48.53182 ], [ -93.0, 48.61236 ], [ -93.0, 43.50183 ] ] ] } },
{ "type": "Feature", "properties": { "name": "Ohio" }, "geometry": { "type": "Polygon", "coordinates": [ [ [ -80.63895, 40.53417 ], [ -80.65905, 40.56298 ], [ -80.63752, 40.60326 ], [ -80.51908, 40.64696 ], [ -80.52076, 42.32439 ], [ -81.27764, 42.20918 ], [ -82.43907, 41.67487 ], [ -82.69001, 41.67518 ], [ -83.02996, 41.83297 ], [ -83.12167, 41.95 ], [ -83.4642, 41.73945 ], [ -84.79611, 41.70143 ], [ -84.80698, 40.6702 ], [ -80.63895, 40.53417 ] ] ] } },
{ "type": "Feature", "properties": { "name": "Wisconsin" }, "geometry": { "type": "Polygon", "coordinates": [ [ [ -87.03913, 42.4928 ], [ -87.15501, 43.32676 ], [ -87.14173, 43.6578 ], [ -87.03249, 44.09147 ], [ -86.7147, 44.8462 ], [ -86.53595, 45.04149 ], [ -86.26452, 45.2269 ], [ -86.77429, 45.45236 ], [ -87.11527, 45.45236 ], [ -87.24438, 45.28979 ], [ -87.4198, 45.18386 ], [ -87.45954, 45.068 ], [ -87.65361, 45.1218 ], [ -87.71885, 45.20127 ], [ -87.72092, 45.24277 ], [ -87.66423, 45.37129 ], [ -87.69639, 45.38283 ], [ -87.84182, 45.36079 ], [ -87.87491, 45.38539 ], [ -87.79456, 45.59603 ], [ -87.80908, 45.68604 ], [ -87.83983, 45.71798 ], [ -87.92254, 45.75997 ], [ -88.11612, 45.8158 ], [ -88.09648, 45.87841 ], [ -88.15174, 45.94541 ], [ -88.49299, 46.01352 ], [ -88.83734, 46.03662 ], [ -89.11929, 46.14919 ], [ -90.11855, 46.34166 ], [ -90.23038, 46.50977 ], [ -90.31823, 46.53664 ], [ -90.34088, 46.55845 ], [ -90.39234, 46.54896 ], [ -90.41259, 46.58527 ], [ -89.95768, 47.28714 ], [ -90.65402, 47.3091 ], [ -91.46836, 46.92509 ], [ -91.96492, 46.72978 ], [ -92.12535, 46.76301 ], [ -92.224, 46.67102 ], [ -92.29165, 46.66072 ], [ -92.29263, 46.08437 ], [ -92.69395, 45.90901 ], [ -92.89652, 45.65858 ], [ -92.89249, 45.59476 ], [ -92.75746, 45.54324 ], [ -92.70702, 45.49376 ], [ -92.6826, 45.43309 ], [ -92.68581, 45.38054 ], [ -92.75392, 45.27757 ], [ -92.75906, 45.11058 ], [ -92.79304, 45.07136 ], [ -92.7634, 44.93426 ], [ -92.79921, 44.79003 ], [ -92.76981, 44.72585 ], [ -92.64354, 44.64534 ], [ -92.53703, 44.60079 ], [ -92.44159, 44.58658 ], [ -92.36694, 44.55227 ], [ -92.31309, 44.4978 ], [ -92.24031, 44.46214 ], [ -92.14858, 44.44525 ], [ -92.05512, 44.39982 ], [ -91.9123, 44.28887 ], [ -91.84098, 44.19416 ], [ -91.71643, 44.12646 ], [ -91.38269, 43.9908 ], [ -91.31992, 43.93628 ], [ -91.27843, 43.79743 ], [ -91.23828, 43.44024 ], [ -91.17836, 43.35893 ], [ -91.1172, 43.33116 ], [ -91.10697, 43.27803 ], [ -91.16133, 43.10233 ], [ -91.14816, 42.98621 ], [ -91.06958, 42.78855 ], [ -90.95995, 42.72034 ], [ -90.78875, 42.67693 ], [ -90.68787, 42.61032 ], [ -90.65058, 42.51298 ], [ -87.03913, 42.4928 ] ] ] } }
]
}
