{
"type": "FeatureCollection",
"name": "regions",
"crs": { "type": "name", "properties": { "name": "urn:ogc:def:crs:OGC:1.3:CRS84" } },
"features": [
{ "type": "Feature", "properties": { "region": "north", "name": "Northern band" }, "geometry": { "type": "Polygon", "coordinates": [ [ [ -87.81942, 45.5 ], [ -87.81518, 45.50582 ], [ -87.81466, 45.56324 ], [ -87.79456, 45.59603 ], [ -87.81409, 45.65703 ], [ -87.80908, 45.68604 ], [ -87.83983, 45.71798 ], [ -87.92254, 45.75997 ], [ -88.11612, 45.8158 ], [ -88.09648, 45.87841 ], [ -88.10442, 45.90515 ], [ -88.15174, 45.94541 ], [ -88.35475, 45.99229 ], [ -88.49299, 46.01352 ], [ -88.62954, 46.01404 ], [ -88.72724, 46.03111 ], [ -88.83734, 46.03662 ], [ -88.90782, 46.06476 ], [ -88.97831, 46.0929 ], [ -89.0488, 46.12106 ], [ -89.11929, 46.14919 ], [ -89.24418, 46.17325 ], [ -89.36908, 46.19734 ], [ -89.49399, 46.22136 ], [ -89.61892, 46.24545 ], [ -89.74384, 46.26947 ], [ -89.86875, 46.29355 ], [ -89.99365, 46.31758 ], [ -90.11855, 46.34166 ], [ -90.14651, 46.38368 ], [ -90.17446, 46.42572 ], [ -90.20242, 46.46775 ], [ -90.23038, 46.50977 ], [ -90.28786, 46.52739 ], [ -90.31823, 46.53664 ], [ -90.34088, 46.55845 ], [ -90.39234, 46.54896 ], [ -90.41259, 46.58527 ], [ -90.35571, 46.67301 ], [ -90.29885, 46.76072 ], [ -90.242, 46.84846 ], [ -90.18514, 46.9362 ], [ -90.12827, 47.02395 ], [ -90.07143, 47.11167 ], [ -90.01455, 47.19939 ], [ -89.95768, 47.28714 ], [ -89.84296, 47.46449 ], [ -89.72824, 47.6418 ], [ -89.61352, 47.81915 ], [ -89.49838, 47.9979 ], [ -89.45565, 47.99622 ], [ -89.27317, 48.01997 ], [ -89.18563, 48.04743 ], [ -89.0626, 48.09381 ], [ -88.8987, 48.15572 ], [ -88.61176, 48.26401 ], [ -88.3782, 48.3031 ], [ -88.16066, 48.2254 ], [ -87.98747, 48.1569 ], [ -87.92049, 48.13039 ], [ -87.74389, 48.06053 ], [ -87.49425, 47.96175 ], [ -87.20803, 47.8485 ], [ -86.92182, 47.73522 ], [ -86.67217, 47.63642 ], [ -86.49557, 47.56658 ], [ -86.42857, 47.54007 ], [ -86.2345, 47.46005 ], [ -86.0404, 47.38003 ], [ -85.84633, 47.30001 ], [ -85.65226, 47.21999 ], [ -85.45819, 47.13996 ], [ -85.26412, 47.05994 ], [ -85.07005, 46.97993 ], [ -84.87597, 46.8999 ], [ -84.82706, 46.76686 ], [ -84.77941, 46.63728 ], [ -84.66578, 46.54325 ], [ -84.56175, 46.45737 ], [ -84.50158, 46.46187 ], [ -84.4405, 46.49814 ], [ -84.40171, 46.51561 ], [ -84.33671, 46.5185 ], [ -84.19217, 46.54956 ], [ -84.14948, 46.54277 ], [ -84.12522, 46.52723 ], [ -84.12318, 46.50295 ], [ -84.12814, 46.4836 ], [ -84.15047, 46.44479 ], [ -84.11517, 46.37081 ], [ -84.10778, 46.28862 ], [ -84.08841, 46.22653 ], [ -84.0292, 46.147 ], [ -83.97779, 46.08491 ], [ -83.91304, 46.07289 ], [ -83.7632, 46.10907 ], [ -83.6693, 46.12274 ], [ -83.61595, 46.11683 ], [ -83.52476, 46.05871 ], [ -83.48015, 46.02375 ], [ -83.46947, 45.99468 ], [ -83.59269, 45.81715 ], [ -83.39731, 45.72904 ], [ -83.17929, 45.63277 ], [ -82.91935, 45.51797 ], [ -82.87868, 45.5 ], [ -87.81942, 45.5 ] ] ] } },
{ "type": "Feature", "properties": { "region": "central", "name": "Central band" }, "geometry": { "type": "Polygon", "coordinates": [ [ [ -87.05545, 44.0 ], [ -87.03249, 44.09147 ], [ -86.91875, 44.36159 ], [ -86.82211, 44.59112 ], [ -86.7147, 44.8462 ], [ -86.53595, 45.04149 ], [ -86.40147, 45.13337 ], [ -86.26452, 45.2269 ], [ -86.48182, 45.323 ], [ -86.77429, 45.45236 ], [ -86.94234, 45.45236 ], [ -87.11527, 45.45236 ], [ -87.24438, 45.28979 ], [ -87.4198, 45.18386 ], [ -87.45954, 45.068 ], [ -87.65361, 45.1218 ], [ -87.69421, 45.16107 ], [ -87.71885, 45.20127 ], [ -87.72092, 45.24277 ], [ -87.66271, 45.34519 ], [ -87.65757, 45.3618 ], [ -87.66423, 45.37129 ], [ -87.69639, 45.38283 ], [ -87.76856, 45.36436 ], [ -87.84182, 45.36079 ], [ -87.86543, 45.36782 ], [ -87.87491, 45.38539 ], [ -87.87403, 45.41281 ], [ -87.85913, 45.4455 ], [ -87.81942, 45.5 ], [ -82.87868, 45.5 ], [ -82.76042, 45.44772 ], [ -82.55108, 45.34736 ], [ -82.51524, 45.20437 ], [ -82.48506, 45.08376 ], [ -82.44659, 44.91551 ], [ -82.40739, 44.74393 ], [ -82.36828, 44.57299 ], [ -82.3268, 44.39156 ], [ -82.28122, 44.19223 ], [ -82.24079, 44.01535 ], [ -82.23726, 44.0 ], [ -87.05545, 44.0 ] ] ] } },
{ "type": "Feature", "properties": { "region": "south", "name": "Southern band" }, "geometry": { "type": "Polygon", "coordinates": [ [ [ -82.23726, 44.0 ], [ -82.1966, 43.82221 ], [ -82.13785, 43.57088 ], [ -82.19038, 43.47409 ], [ -82.30477, 43.26323 ], [ -82.40819, 43.07264 ], [ -82.41723, 43.01738 ], [ -82.48835, 42.73951 ], [ -82.54532, 42.62468 ], [ -82.64513, 42.55805 ], [ -82.7442, 42.49348 ], [ -82.86775, 42.38521 ], [ -83.00368, 42.33173 ], [ -83.07314, 42.30031 ], [ -83.10952, 42.25071 ], [ -83.14967, 42.14192 ], [ -83.14195, 41.97586 ], [ -83.12167, 41.95 ], [ -83.30395, 41.83781 ], [ -83.4642, 41.73945 ], [ -83.79718, 41.72995 ], [ -84.13015, 41.72045 ], [ -84.46313, 41.71094 ], [ -84.79611, 41.70143 ], [ -84.7964, 41.75973 ], [ -85.0995, 41.75986 ], [ -85.40261, 41.75998 ], [ -85.70571, 41.76011 ], [ -86.00883, 41.76024 ], [ -86.31193, 41.76038 ], [ -86.61504, 41.7605 ], [ -86.91816, 41.76061 ], [ -87.22126, 41.76073 ], [ -87.17573, 41.94375 ], [ -87.1302, 42.12678 ], [ -87.08467, 42.30979 ], [ -87.03913, 42.4928 ], [ -87.07936, 42.78215 ], [ -87.11385, 43.03055 ], [ -87.15501, 43.32676 ], [ -87.14519, 43.57126 ], [ -87.14173, 43.6578 ], [ -87.0832, 43.89014 ], [ -87.05545, 44.0 ], [ -82.23726, 44.0 ] ] ] } }
]
}
