{"type":"FeatureCollection","name":"trend_cells","crs":{"type":"name","properties":{"name":"urn:ogc:def:crs:OGC:1.3:CRS84"}},"features":[{"type":"Feature","properties":{"species_code":"yebsap-example","season":"breeding","start_year":2012,"end_year":2022,"start_date":"05-24","end_date":"08-16","srd_id":263352,"longitude":-89.1273462,"latitude":47.9139836,"abd":0.1393408,"abd_ppy":-2.3823119,"abd_ppy_lower":-6.2784101,"abd_ppy_upper":-0.1824598,"abd_ppy_nonzero":true,"abd_trend":-21.4248568,"abd_trend_lower":-47.7126691,"abd_trend_upper":-1.8096892,"regions":["north"]},"geometry":{"type":"Polygon","coordinates":[[[-89.15524,48.03389],[-88.74301,47.79408],[-89.09998,47.79408],[-89.45001,47.99695],[-89.27317,48.01997],[-89.22881,48.03389],[-89.15524,48.03389]]]}},{"type":"Feature","properties":{"species_code":"yebsap-example","season":"breeding","start_year":2012,"end_year":2022,"start_date":"05-24","end_date":"08-16","srd_id":266357,"longitude":-87.9573965,"latitude":47.4343708,"abd":0.2689862,"abd_ppy":-2.7279773,"abd_ppy_lower":-5.7494499,"abd_ppy_upper":0.3595303,"abd_ppy_nonzero":false,"abd_trend":-24.1632927,"abd_trend_lower":-44.685507,"abd_trend_upper":3.6540326,"regions":["north"]},"geometry":{"type":"Polygon","coordinates":[[[-88.33612,47.55427],[-87.9808,47.55427],[-87.58077,47.31447],[-87.93448,47.31447],[-88.33612,47.55427]]]}},{"type":"Feature","properties":{"species_code":"yebsap-example","season":"breeding","start_year":2012,"end_year":2022,"start_date":"05-24","end_date":"08-16","srd_id":267857,"longitude":-88.2649702,"latitude":47.1945645,"abd":0.3055336,"abd_ppy":-0.8287186,"abd_ppy_lower":-1.7736238,"abd_ppy_upper":2.1984298,"abd_ppy_nonzero":false,"abd_trend":-7.9848695,"abd_trend_lower":-16.3855723,"abd_trend_upper":24.2917302,"regions":["north"]},"geometry":{"type":"Polygon","coordinates":[[[-88.6419,47.31447],[-88.28819,47.31447],[-87.89012,47.07466],[-88.24224,47.07466],[-88.6419,47.31447]]]}},{"type":"Feature","properties":{"species_code":"yebsap-example","season":"breeding","start_year":2012,"end_year":2022,"start_date":"05-24","end_date":"08-16","srd_id":269356,"longitude":-88.9226412,"latitude":46.9547581,"abd":0.5390584,"abd_ppy":-1.8156189,"abd_ppy_lower":-3.1620301,"abd_ppy_upper":-0.475644,"abd_ppy_nonzero":true,"abd_trend":-16.742365,"abd_trend_lower":-27.4801723,"abd_trend_upper":-4.655914,"regions":["north"]},"geometry":{"type":"Polygon","coordinates":[[[-89.29858,47.07466],[-88.94647,47.07466],[-88.54877,46.83485],[-88.89931,46.83485],[-89.29858,47.07466]]]}},{"type":"Feature","properties":{"species_code":"yebsap-example","season":"breeding","start_year":2012,"end_year":2022,"start_date":"05-24","end_date":"08-16","srd_id":269357,"longitude":-88.5713157,"latitude":46.9547581,"abd":0.4213898,"abd_ppy":-0.9236505,"abd_ppy_lower":-3.694575,"abd_ppy_upper":1.30063,"abd_ppy_nonzero":false,"abd_trend":-8.8619014,"abd_trend_lower":-31.3710238,"abd_trend_upper":13.7945505,"regions":["north"]},"geometry":{"type":"Polygon","coordinates":[[[-88.94647,47.07466],[-88.59435,47.07466],[-88.19823,46.83485],[-88.54877,46.83485],[-88.94647,47.07466]]]}},{"type":"Feature","properties":{"species_code":"yebsap-example","season":"breeding","start_year":2012,"end_year":2022,"start_date":"05-24","end_date":"08-16","srd_id":270854,"longitude":-89.925756,"latitude":46.7149518,"abd":0.6598152,"abd_ppy":-1.5392502,"abd_ppy_lower":-4.056578,"abd_ppy_upper":0.294457,"abd_ppy_nonzero":false,"abd_trend":-14.3689265,"abd_trend_lower":-33.9075208,"abd_trend_upper":2.9838953,"regions":["north"]},"geometry":{"type":"Polygon","coordinates":[[[-89.95093,46.83485],[-89.5521,46.59505],[-89.90108,46.59505],[-90.26495,46.81302],[-90.25081,46.83485],[-89.95093,46.83485]]]}},{"type":"Feature","properties":{"species_code":"yebsap-example","season":"breeding","start_year":2012,"end_year":2022,"start_date":"05-24","end_date":"08-16","srd_id":270855,"longitude":-89.5759949,"latitude":46.7149518,"abd":0.5731371,"abd_ppy":-0.6210373,"abd_ppy_lower":-1.7531039,"abd_ppy_upper":1.2373452,"abd_ppy_nonzero":false,"abd_trend":-6.0396569,"abd_trend_lower":-16.2107336,"abd_trend_upper":13.0856449,"regions":["north"]},"geometry":{"type":"Polygon","coordinates":[[[-89.95093,46.83485],[-89.60039,46.83485],[-89.20311,46.59505],[-89.5521,46.59505],[-89.95093,46.83485]]]}},{"type":"Feature","properties":{"species_code":"yebsap-example","season":"breeding","start_year":2012,"end_year":2022,"start_date":"05-24","end_date":"08-16","srd_id":270856,"longitude":-89.2262337,"latitude":46.7149518,"abd":0.5848168,"abd_ppy":-1.2140765,"abd_ppy_lower":-2.8761829,"abd_ppy_upper":-0.1855792,"abd_ppy_nonzero":true,"abd_trend":-11.4984976,"abd_trend_lower":-25.3108658,"abd_trend_upper":-1.8403706,"regions":["north"]},"geometry":{"type":"Polygon","coordinates":[[[-89.60039,46.83485],[-89.24985,46.83485],[-88.85412,46.59505],[-89.20311,46.59505],[-89.60039,46.83485]]]}},{"type":"Feature","properties":{"species_code":"yebsap-example","season":"breeding","start_year":2012,"end_year":2022,"start_date":"05-24","end_date":"08-16","srd_id":270857,"longitude":-88.8764726,"latitude":46.7149518,"abd":0.6246964,"abd_ppy":-1.8127572,"abd_ppy_lower":-3.4943284,"abd_ppy_upper":0.5420233,"abd_ppy_nonzero":false,"abd_trend":-16.7180953,"abd_trend_lower":-29.9306043,"abd_trend_upper":5.5543676,"regions":["north"]},"geometry":{"type":"Polygon","coordinates":[[[-89.24985,46.83485],[-88.89931,46.83485],[-88.50514,46.59505],[-88.85412,46.59505],[-89.24985,46.83485]]]}},{"type":"Feature","properties":{"species_code":"yebsap-example","season":"breeding","start_year":2012,"end_year":2022,"start_date":"05-24","end_date":"08-16","srd_id":270858,"longitude":-88.5267115,"latitude":46.7149518,"abd":0.5651655,"abd_ppy":-0.6879463,"abd_ppy_lower":-1.6794053,"abd_ppy_upper":1.8698545,"abd_ppy_nonzero":false,"abd_trend":-6.6703523,"abd_trend_lower":-15.5800738,"abd_trend_upper":20.3529835,"regions":["north"]},"geometry":{"type":"Polygon","coordinates":[[[-88.89931,46.83485],[-88.54877,46.83485],[-88.15615,46.59505],[-88.50514,46.59505],[-88.89931,46.83485]]]}},{"type":"Feature","properties":{"species_code":"yebsap-example","season":"breeding","start_year":2012,"end_year":2022,"start_date":"05-24","end_date":"08-16","srd_id":270859,"longitude":-88.1769503,"latitude":46.7149518,"abd":0.7129085,"abd_ppy":-1.7996909,"abd_ppy_lower":-4.0587233,"abd_ppy_upper":-0.6138089,"abd_ppy_nonzero":true,"abd_trend":-16.6072013,"abd_trend_lower":-33.9222977,"abd_trend_upper":-5.9712923,"regions":["north"]},"geometry":{"type":"Polygon","coordinates":[[[-88.54877,46.83485],[-88.19823,46.83485],[-87.80716,46.59505],[-88.15615,46.59505],[-88.54877,46.83485]]]}},{"type":"Feature","properties":{"species_code":"yebsap-example","season":"breeding","start_year":2012,"end_year":2022,"start_date":"05-24","end_date":"08-16","srd_id":270860,"longitude":-87.8271892,"latitude":46.7149518,"abd":0.6857655,"abd_ppy":-1.1887343,"abd_ppy_lower":-3.0401338,"abd_ppy_upper":0.3124571,"abd_ppy_nonzero":false,"abd_trend":-11.2711967,"abd_trend_lower":-26.5621295,"abd_trend_upper":3.1688727,"regions":["north"]},"geometry":{"type":"Polygon","coordinates":[[[-88.19823,46.83485],[-87.84769,46.83485],[-87.45818,46.59505],[-87.80716,46.59505],[-88.19823,46.83485]]]}},{"type":"Feature","properties":{"species_code":"yebsap-example","season":"breeding","start_year":2012,"end_year":2022,"start_date":"05-24","end_date":"08-16","srd_id":270867,"longitude":-85.3788612,"latitude":46.7149518,"abd":0.2801977,"abd_ppy":-0.6085841,"abd_ppy_lower":-2.5631105,"abd_ppy_upper":0.9120256,"abd_ppy_nonzero":false,"abd_trend":-5.9218484,"abd_trend_lower":-22.8680852,"abd_trend_upper":9.5038116,"regions":["north"]},"geometry":{"type":"Polygon","coordinates":[[[-85.74444,46.83485],[-85.3939,46.83485],[-85.01527,46.59505],[-85.36426,46.59505],[-85.74444,46.83485]]]}},{"type":"Feature","properties":{"species_code":"yebsap-example","season":"breeding","start_year":2012,"end_year":2022,"start_date":"05-24","end_date":"08-16","srd_id":270868,"longitude":-85.0291001,"latitude":46.7149518,"abd":0.1763401,"abd_ppy":-0.7258581,"abd_ppy_lower":-1.945262,"abd_ppy_upper":1.2104521,"abd_ppy_nonzero":false,"abd_trend":-7.0260213,"abd_trend_lower":-17.8351932,"abd_trend_upper":12.7855989,"regions":["north"]},"geometry":{"type":"Polygon","coordinates":[[[-85.01527,46.59505],[-85.3939,46.83485],[-85.04336,46.83485],[-84.79368,46.67617],[-84.77941,46.63728],[-84.72835,46.59505],[-85.01527,46.59505]]]}},{"type":"Feature","properties":{"species_code":"yebsap-example","season":"breeding","start_year":2012,"end_year":2022,"start_date":"05-24","end_date":"08-16","srd_id":272355,"longitude":-89.876913,"latitude":46.4751454,"abd":0.6686554,"abd_ppy":-1.7552671,"abd_ppy_lower":-3.8652093,"abd_ppy_upper":-0.2665086,"abd_ppy_nonzero":true,"abd_trend":-16.2291805,"abd_trend_lower":-32.5773445,"abd_trend_upper":-2.6333503,"regions":["north"]},"geometry":{"type":"Polygon","coordinates":[[[-90.25007,46.59505],[-89.90108,46.59505],[-89.50579,46.35524],[-89.85324,46.35524],[-90.25007,46.59505]]]}},{"type":"Feature","properties":{"species_code":"yebsap-example","season":"breeding","start_year":2012,"end_year":2022,"start_date":"05-24","end_date":"08-16","srd_id":272356,"longitude":-89.5286962,"latitude":46.4751454,"abd":0.674301,"abd_ppy":-1.6453072,"abd_ppy_lower":-3.7723619,"abd_ppy_upper":-0.3121295,"abd_ppy_nonzero":true,"abd_trend":-15.2868439,"abd_trend_lower":-31.9233367,"abd_trend_upper":-3.077817,"regions":["north"]},"geometry":{"type":"Polygon","coordinates":[[[-89.90108,46.59505],[-89.5521,46.59505],[-89.15834,46.35524],[-89.50579,46.35524],[-89.90108,46.59505]]]}},{"type":"Feature","properties":{"species_code":"yebsap-example","season":"breeding","start_year":2012,"end_year":2022,"start_date":"05-24","end_date":"08-16","srd_id":272357,"longitude":-89.1804794,"latitude":46.4751454,"abd":0.5959687,"abd_ppy":-1.2805074,"abd_ppy_lower":-2.6780059,"abd_ppy_upper":-0.6099281,"abd_ppy_nonzero":true,"abd_trend":-12.0918495,"abd_trend_lower":-23.7727961,"abd_trend_upper":-5.9345694,"regions":["north"]},"geometry":{"type":"Polygon","coordinates":[[[-89.5521,46.59505],[-89.20311,46.59505],[-88.81089,46.35524],[-89.15834,46.35524],[-89.5521,46.59505]]]}},{"type":"Feature","properties":{"species_code":"yebsap-example","season":"breeding","start_year":2012,"end_year":2022,"start_date":"05-24","end_date":"08-16","srd_id":272358,"longitude":-88.8322626,"latitude":46.4751454,"abd":0.6664386,"abd_ppy":-1.8234804,"abd_ppy_lower":-3.2656757,"abd_ppy_upper":-0.7522184,"abd_ppy_nonzero":true,"abd_trend":-16.8090049,"abd_trend_lower":-28.2526235,"abd_trend_upper":-7.2726006,"regions":["north"]},"geometry":{"type":"Polygon","coordinates":[[[-89.20311,46.59505],[-88.85412,46.59505],[-88.46343,46.35524],[-88.81089,46.35524],[-89.20311,46.59505]]]}},{"type":"Feature","properties":{"species_code":"yebsap-example","season":"breeding","start_year":2012,"end_year":2022,"start_date":"05-24","end_date":"08-16","srd_id":272359,"longitude":-88.4840458,"latitude":46.4751454,"abd":0.7528755,"abd_ppy":-3.9986894,"abd_ppy_lower":-5.481545,"abd_ppy_upper":-1.6207144,"abd_ppy_nonzero":true,"abd_trend":-33.5076596,"abd_trend_lower":-43.092941,"abd_trend_upper":-15.0747867,"regions":["north"]},"geometry":{"type":"Polygon","coordinates":[[[-88.85412,46.59505],[-88.50514,46.59505],[-88.11598,46.35524],[-88.46343,46.35524],[-88.85412,46.59505]]]}},{"type":"Feature","properties":{"species_code":"yebsap-example","season":"breeding","start_year":2012,"end_year":2022,"start_date":"05-24","end_date":"08-16","srd_id":272360,"longitude":-88.135829,"latitude":46.4751454,"abd":0.6581985,"abd_ppy":-2.1552824,"abd_ppy_lower":-3.7480755,"abd_ppy_upper":-0.7872059,"abd_ppy_nonzero":true,"abd_trend":-19.5781906,"abd_trend_lower":-31.7513259,"abd_trend_upper":-7.5989711,"regions":["north"]},"geometry":{"type":"Polygon","coordinates":[[[-88.50514,46.59505],[-88.15615,46.59505],[-87.76853,46.35524],[-88.11598,46.35524],[-88.50514,46.59505]]]}},{"type":"Feature","properties":{"species_code":"yebsap-example","season":"breeding","start_year":2012,"end_year":2022,"start_date":"05-24","end_date":"08-16","srd_id":272361,"longitude":-87.7876122,"latitude":46.4751454,"abd":0.5132984,"abd_ppy":-0.5806582,"abd_ppy_lower":-2.1296339,"abd_ppy_upper":0.7117045,"abd_ppy_nonzero":false,"abd_trend":-5.6571837,"abd_trend_lower":-19.3671276,"abd_trend_upper":7.349361,"regions":["north"]},"geometry":{"type":"Polygon","coordinates":[[[-88.15615,46.59505],[-87.80716,46.59505],[-87.42108,46.35524],[-87.76853,46.35524],[-88.15615,46.59505]]]}},{"type":"Feature","properties":{"species_code":"yebsap-example","season":"breeding","start_year":2012,"end_year":2022,"start_date":"05-24","end_date":"08-16","srd_id":272362,"longitude":-87.4393954,"latitude":46.4751454,"abd":0.4993979,"abd_ppy":-0.4376307,"abd_ppy_lower":-1.6459238,"abd_ppy_upper":3.5989114,"abd_ppy_nonzero":false,"abd_trend":-4.2911207,"abd_trend_lower":-15.2921545,"abd_trend_upper":42.4137484,"regions":["north"]},"geometry":{"type":"Polygon","coordinates":[[[-87.80716,46.59505],[-87.45818,46.59505],[-87.07363,46.35524],[-87.42108,46.35524],[-87.80716,46.59505]]]}},{"type":"Feature","properties":{"species_code":"yebsap-example","season":"breeding","start_year":2012,"end_year":2022,"start_date":"05-24","end_date":"08-16","srd_id":272363,"longitude":-87.0911786,"latitude":46.4751454,"abd":0.4320665,"abd_ppy":-0.9322937,"abd_ppy_lower":-3.6612259,"abd_ppy_upper":1.1143068,"abd_ppy_nonzero":false,"abd_trend":-8.9413769,"abd_trend_lower":-31.1330011,"abd_trend_upper":11.7187556,"regions":["north"]},"geometry":{"type":"Polygon","coordinates":[[[-87.45818,46.59505],[-87.10919,46.59505],[-86.72617,46.35524],[-87.07363,46.35524],[-87.45818,46.59505]]]}},{"type":"Feature","properties":{"species_code":"yebsap-example","season":"breeding","start_year":2012,"end_year":2022,"start_date":"05-24","end_date":"08-16","srd_id":272364,"longitude":-86.7429618,"latitude":46.4751454,"abd":0.3224955,"abd_ppy":0.5891275,"abd_ppy_lower":-1.1126852,"abd_ppy_upper":2.4134677,"abd_ppy_nonzero":false,"abd_trend":6.0499366,"abd_trend_lower":-10.5859344,"abd_trend_upper":26.9318813,"regions":["north"]},"geometry":{"type":"Polygon","coordinates":[[[-87.10919,46.59505],[-86.76021,46.59505],[-86.37872,46.35524],[-86.72617,46.35524],[-87.10919,46.59505]]]}},{"type":"Feature","properties":{"species_code":"yebsap-example","season":"breeding","start_year":2012,"end_year":2022,"start_date":"05-24","end_date":"08-16","srd_id":272365,"longitude":-86.394745,"latitude":46.4751454,"abd":0.4208772,"abd_ppy":-0.4490208,"abd_ppy_lower":-2.2001278,"abd_ppy_upper":0.5489364,"abd_ppy_nonzero":false,"abd_trend":-4.4005574,"abd_trend_lower":-19.9460302,"abd_trend_upper":5.6269667,"regions":["north"]},"geometry":{"type":"Polygon","coordinates":[[[-86.76021,46.59505],[-86.41122,46.59505],[-86.03127,46.35524],[-86.37872,46.35524],[-86.76021,46.59505]]]}},{"type":"Feature","properties":{"species_code":"yebsap-example","season":"breeding","start_year":2012,"end_year":2022,"start_date":"05-24","end_date":"08-16","srd_id":272366,"longitude":-86.0465282,"latitude":46.4751454,"abd":0.3815093,"abd_ppy":0.2950032,"abd_ppy_lower":-0.3222568,"abd_ppy_upper":0.9020873,"abd_ppy_nonzero":false,"abd_trend":2.9895037,"abd_trend_lower":-3.1762355,"abd_trend_upper":9.3960156,"regions":["north"]},"geometry":{"type":"Polygon","coordinates":[[[-86.41122,46.59505],[-86.06223,46.59505],[-85.68382,46.35524],[-86.03127,46.35524],[-86.41122,46.59505]]]}},{"type":"Feature","properties":{"species_code":"yebsap-example","season":"breeding","start_year":2012,"end_year":2022,"start_date":"05-24","end_date":"08-16","srd_id":272367,"longitude":-85.6983114,"latitude":46.4751454,"abd":0.4626734,"abd_ppy":-0.3363056,"abd_ppy_lower":-1.5673275,"abd_ppy_upper":1.6261123,"abd_ppy_nonzero":false,"abd_trend":-3.312614,"abd_trend_lower":-14.6128009,"abd_trend_upper":17.5041266,"regions":["north"]},"geometry":{"type":"Polygon","coordinates":[[[-86.06223,46.59505],[-85.71325,46.59505],[-85.33637,46.35524],[-85.68382,46.35524],[-86.06223,46.59505]]]}},{"type":"Feature","properties":{"species_code":"yebsap-example","season":"breeding","start_year":2012,"end_year":2022,"start_date":"05-24","end_date":"08-16","srd_id":272368,"longitude":-85.3500946,"latitude":46.4751454,"abd":0.3856325,"abd_ppy":-0.2783841,"abd_ppy_lower":-2.2742365,"abd_ppy_upper":1.9704127,"abd_ppy_nonzero":false,"abd_trend":-2.7492244,"abd_trend_lower":-20.5505815,"abd_trend_upper":21.5463076,"regions":["north"]},"geometry":{"type":"Polygon","coordinates":[[[-85.71325,46.59505],[-85.36426,46.59505],[-84.98891,46.35524],[-85.33637,46.35524],[-85.71325,46.59505]]]}},{"type":"Feature","properties":{"species_code":"yebsap-example","season":"breeding","start_year":2012,"end_year":2022,"start_date":"05-24","end_date":"08-16","srd_id":272369,"longitude":-85.0018778,"latitude":46.4751454,"abd":0.3829878,"abd_ppy":-0.9778317,"abd_ppy_lower":-3.5861123,"abd_ppy_upper":2.0289716,"abd_ppy_nonzero":false,"abd_trend":-9.3590766,"abd_trend_lower":-30.5941699,"abd_trend_upper":22.246122,"regions":["north"]},"geometry":{"type":"Polygon","coordinates":[[[-85.36426,46.59505],[-85.01527,46.59505],[-84.64146,46.35524],[-84.98891,46.35524],[-85.36426,46.59505]]]}},{"type":"Feature","properties":{"species_code":"yebsap-example","season":"breeding","start_year":2012,"end_year":2022,"start_date":"05-24","end_date":"08-16","srd_id":272370,"longitude":-84.653661,"latitude":46.4751454,"abd":0.2308382,"abd_ppy":0.5587806,"abd_ppy_lower":-1.6259384,"abd_ppy_upper":2.5006545,"abd_ppy_nonzero":false,"abd_trend":5.7304259,"abd_trend_lower":-15.1198719,"abd_trend_upper":28.0166285,"regions":["north"]},"geometry":{"type":"Polygon","coordinates":[[[-84.29401,46.35524],[-84.64146,46.35524],[-85.01527,46.59505],[-84.72835,46.59505],[-84.66578,46.54325],[-84.56175,46.45737],[-84.50158,46.46187],[-84.47961,46.47491],[-84.29401,46.35524]]]}},{"type":"Feature","properties":{"species_code":"yebsap-example","season":"breeding","start_year":2012,"end_year":2022,"start_date":"05-24","end_date":"08-16","srd_id":272371,"longitude":-84.3054442,"latitude":46.4751454,"abd":0.2712455,"abd_ppy":1.078106,"abd_ppy_lower":-0.3071615,"abd_ppy_upper":2.3072126,"abd_ppy_nonzero":false,"abd_trend":11.3194248,"abd_trend_lower":-3.0295044,"abd_trend_upper":25.6210795,"regions":["north"]},"geometry":{"type":"Polygon","coordinates":[[[-84.29401,46.35524],[-84.47961,46.47491],[-84.4405,46.49814],[-84.40171,46.51561],[-84.33671,46.5185],[-84.23321,46.54074],[-84.13267,46.47574],[-84.15047,46.44479],[-84.11517,46.37081],[-84.11376,46.35524],[-84.29401,46.35524]]]}},{"type":"Feature","properties":{"species_code":"yebsap-example","season":"breeding","start_year":2012,"end_year":2022,"start_date":"05-24","end_date":"08-16","srd_id":273857,"longitude":-89.483374,"latitude":46.235339,"abd":0.6513824,"abd_ppy":-3.9327925,"abd_ppy_lower":-7.0284063,"abd_ppy_upper":-2.3870585,"abd_ppy_nonzero":true,"abd_trend":-33.0498326,"abd_trend_lower":-51.7493956,"abd_trend_upper":-21.4630557,"regions":["north"]},"geometry":{"type":"Polygon","coordinates":[[[-89.85324,46.35524],[-89.50579,46.35524],[-89.19365,46.16352],[-89.24418,46.17325],[-89.36908,46.19734],[-89.49399,46.22136],[-89.61892,46.24545],[-89.69877,46.2608],[-89.85324,46.35524]]]}},{"type":"Feature","properties":{"species_code":"yebsap-example","season":"breeding","start_year":2012,"end_year":2022,"start_date":"05-24","end_date":"08-16","srd_id":273858,"longitude":-89.1366819,"latitude":46.235339,"abd":0.7953305,"abd_ppy":-2.9892591,"abd_ppy_lower":-4.9554067,"abd_ppy_upper":-0.5752717,"abd_ppy_nonzero":true,"abd_trend":-26.1758906,"abd_trend_lower":-39.8446626,"abd_trend_upper":-5.606057,"regions":["north"]},"geometry":{"type":"Polygon","coordinates":[[[-89.50579,46.35524],[-89.15834,46.35524],[-88.76957,46.11544],[-89.03472,46.11544],[-89.0488,46.12106],[-89.11929,46.14919],[-89.19365,46.16352],[-89.50579,46.35524]]]}},{"type":"Feature","properties":{"species_code":"yebsap-example","season":"breeding","start_year":2012,"end_year":2022,"start_date":"05-24","end_date":"08-16","srd_id":273859,"longitude":-88.7899898,"latitude":46.235339,"abd":0.8065868,"abd_ppy":-2.529887,"abd_ppy_lower":-4.2847424,"abd_ppy_upper":-1.2255128,"abd_ppy_nonzero":true,"abd_trend":-22.6046807,"abd_trend_lower":-35.4625612,"abd_trend_upper":-11.6009011,"regions":["north"]},"geometry":{"type":"Polygon","coordinates":[[[-89.15834,46.35524],[-88.81089,46.35524],[-88.42364,46.11544],[-88.76957,46.11544],[-89.15834,46.35524]]]}},{"type":"Feature","properties":{"species_code":"yebsap-example","season":"breeding","start_year":2012,"end_year":2022,"start_date":"05-24","end_date":"08-16","srd_id":273860,"longitude":-88.4432977,"latitude":46.235339,"abd":0.784844,"abd_ppy":-3.4118984,"abd_ppy_lower":-3.9577681,"abd_ppy_upper":-1.8944927,"abd_ppy_nonzero":true,"abd_trend":-29.3298031,"abd_trend_lower":-33.2236867,"abd_trend_upper":-17.4087809,"regions":["north"]},"geometry":{"type":"Polygon","coordinates":[[[-88.81089,46.35524],[-88.46343,46.35524],[-88.0777,46.11544],[-88.42364,46.11544],[-88.81089,46.35524]]]}},{"type":"Feature","properties":{"species_code":"yebsap-example","season":"breeding","start_year":2012,"end_year":2022,"start_date":"05-24","end_date":"08-16","srd_id":273861,"longitude":-88.0966057,"latitude":46.235339,"abd":0.688974,"abd_ppy":-1.7323821,"abd_ppy_lower":-3.8782341,"abd_ppy_upper":-0.9548892,"abd_ppy_nonzero":true,"abd_trend":-16.0338418,"abd_trend_lower":-32.6686367,"abd_trend_upper":-9.148852,"regions":["north"]},"geometry":{"type":"Polygon","coordinates":[[[-88.46343,46.35524],[-88.11598,46.35524],[-87.73176,46.11544],[-88.0777,46.11544],[-88.46343,46.35524]]]}},{"type":"Feature","properties":{"species_code":"yebsap-example","season":"breeding","start_year":2012,"end_year":2022,"start_date":"05-24","end_date":"08-16","srd_id":273862,"longitude":-87.7499136,"latitude":46.235339,"abd":0.6140695,"abd_ppy":-0.9288078,"abd_ppy_lower":-3.4781347,"abd_ppy_upper":1.7859714,"abd_ppy_nonzero":false,"abd_trend":-8.9093305,"abd_trend_lower":-29.8129383,"abd_trend_upper":19.3656202,"regions":["north"]},"geometry":{"type":"Polygon","coordinates":[[[-88.11598,46.35524],[-87.76853,46.35524],[-87.38583,46.11544],[-87.73176,46.11544],[-88.11598,46.35524]]]}},{"type":"Feature","properties":{"species_code":"yebsap-example","season":"breeding","start_year":2012,"end_year":2022,"start_date":"05-24","end_date":"08-16","srd_id":273863,"longitude":-87.4032215,"latitude":46.235339,"abd":0.4473464,"abd_ppy":0.3424,"abd_ppy_lower":-2.3235178,"abd_ppy_upper":1.3405173,"abd_ppy_nonzero":false,"abd_trend":3.4772417,"abd_trend_lower":-20.9503229,"abd_trend_upper":14.2434133,"regions":["north"]},"geometry":{"type":"Polygon","coordinates":[[[-87.76853,46.35524],[-87.42108,46.35524],[-87.03989,46.11544],[-87.38583,46.11544],[-87.76853,46.35524]]]}},{"type":"Feature","properties":{"species_code":"yebsap-example","season":"breeding","start_year":2012,"end_year":2022,"start_date":"05-24","end_date":"08-16","srd_id":273864,"longitude":-87.0565294,"latitude":46.235339,"abd":0.4594843,"abd_ppy":0.9179708,"abd_ppy_lower":-2.2579635,"abd_ppy_upper":2.9687555,"abd_ppy_nonzero":false,"abd_trend":9.5683432,"abd_trend_lower":-20.4181861,"abd_trend_upper":33.984524,"regions":["north"]},"geometry":{"type":"Polygon","coordinates":[[[-87.42108,46.35524],[-87.07363,46.35524],[-86.69395,46.11544],[-87.03989,46.11544],[-87.42108,46.35524]]]}},{"type":"Feature","properties":{"species_code":"yebsap-example","season":"breeding","start_year":2012,"end_year":2022,"start_date":"05-24","end_date":"08-16","srd_id":273865,"longitude":-86.7098373,"latitude":46.235339,"abd":0.5097226,"abd_ppy":-0.7466345,"abd_ppy_lower":-2.2854885,"abd_ppy_upper":0.380707,"abd_ppy_nonzero":false,"abd_trend":-7.220417,"abd_trend_lower":-20.642011,"abd_trend_upper":3.8729581,"regions":["north"]},"geometry":{"type":"Polygon","coordinates":[[[-87.07363,46.35524],[-86.72617,46.35524],[-86.34801,46.11544],[-86.69395,46.11544],[-87.07363,46.35524]]]}},{"type":"Feature","properties":{"species_code":"yebsap-example","season":"breeding","start_year":2012,"end_year":2022,"start_date":"05-24","end_date":"08-16","srd_id":273866,"longitude":-86.3631453,"latitude":46.235339,"abd":0.3532538,"abd_ppy":-0.1905588,"abd_ppy_lower":-1.3243055,"abd_ppy_upper":1.1591734,"abd_ppy_nonzero":false,"abd_trend":-1.8893302,"abd_trend_lower":-12.4810865,"abd_trend_upper":12.2154662,"regions":["north"]},"geometry":{"type":"Polygon","coordinates":[[[-86.72617,46.35524],[-86.37872,46.35524],[-86.00208,46.11544],[-86.34801,46.11544],[-86.72617,46.35524]]]}},{"type":"Feature","properties":{"species_code":"yebsap-example","season":"breeding","start_year":2012,"end_year":2022,"start_date":"05-24","end_date":"08-16","srd_id":273867,"longitude":-86.0164532,"latitude":46.235339,"abd":0.2332659,"abd_ppy":2.2900172,"abd_ppy_lower":0.8213851,"abd_ppy_upper":4.4483458,"abd_ppy_nonzero":true,"abd_trend":25.4101011,"abd_trend_lower":8.5242003,"abd_trend_upper":54.5310172,"regions":["north"]},"geometry":{"type":"Polygon","coordinates":[[[-86.37872,46.35524],[-86.03127,46.35524],[-85.65614,46.11544],[-86.00208,46.11544],[-86.37872,46.35524]]]}},{"type":"Feature","properties":{"species_code":"yebsap-example","season":"breeding","start_year":2012,"end_year":2022,"start_date":"05-24","end_date":"08-16","srd_id":273868,"longitude":-85.6697611,"latitude":46.235339,"abd":0.3897732,"abd_ppy":-1.1151927,"abd_ppy_lower":-3.1467765,"abd_ppy_upper":1.6060328,"abd_ppy_nonzero":false,"abd_trend":-10.6086049,"abd_trend_lower":-27.3658603,"abd_trend_upper":17.2721659,"regions":["north"]},"geometry":{"type":"Polygon","coordinates":[[[-86.03127,46.35524],[-85.68382,46.35524],[-85.3102,46.11544],[-85.65614,46.11544],[-86.03127,46.35524]]]}},{"type":"Feature","properties":{"species_code":"yebsap-example","season":"breeding","start_year":2012,"end_year":2022,"start_date":"05-24","end_date":"08-16","srd_id":273869,"longitude":-85.323069,"latitude":46.235339,"abd":0.3921752,"abd_ppy":-0.8114935,"abd_ppy_lower":-1.5684067,"abd_ppy_upper":0.1935123,"abd_ppy_nonzero":false,"abd_trend":-7.8249225,"abd_trend_lower":-14.6221624,"abd_trend_upper":1.9520617,"regions":["north"]},"geometry":{"type":"Polygon","coordinates":[[[-85.68382,46.35524],[-85.33637,46.35524],[-84.96427,46.11544],[-85.3102,46.11544],[-85.68382,46.35524]]]}},{"type":"Feature","properties":{"species_code":"yebsap-example","season":"breeding","start_year":2012,"end_year":2022,"start_date":"05-24","end_date":"08-16","srd_id":273870,"longitude":-84.9763769,"latitude":46.235339,"abd":0.3794603,"abd_ppy":-0.993469,"abd_ppy_lower":-2.6801941,"abd_ppy_upper":2.4881554,"abd_ppy_nonzero":false,"abd_trend":-9.5021129,"abd_trend_lower":-23.7899336,"abd_trend_upper":27.8606091,"regions":["north"]},"geometry":{"type":"Polygon","coordinates":[[[-85.33637,46.35524],[-84.98891,46.35524],[-84.61833,46.11544],[-84.96427,46.11544],[-85.33637,46.35524]]]}},{"type":"Feature","properties":{"species_code":"yebsap-example","season":"breeding","start_year":2012,"end_year":2022,"start_date":"05-24","end_date":"08-16","srd_id":273871,"longitude":-84.6296849,"latitude":46.235339,"abd":0.2894226,"abd_ppy":1.5651388,"abd_ppy_lower":-0.5272569,"abd_ppy_upper":2.4328251,"abd_ppy_nonzero":false,"abd_trend":16.8010271,"abd_trend_lower":-5.1492116,"abd_trend_upper":27.1720016,"regions":["north"]},"geometry":{"type":"Polygon","coordinates":[[[-84.98891,46.35524],[-84.64146,46.35524],[-84.27239,46.11544],[-84.61833,46.11544],[-84.98891,46.35524]]]}},{"type":"Feature","properties":{"species_code":"yebsap-example","season":"breeding","start_year":2012,"end_year":2022,"start_date":"05-24","end_date":"08-16","srd_id":273872,"longitude":-84.2829928,"latitude":46.235339,"abd":0.3014028,"abd_ppy":-0.1022322,"abd_ppy_lower":-3.8219048,"abd_ppy_upper":4.0147233,"abd_ppy_nonzero":false,"abd_trend":-1.017632,"abd_trend_lower":-32.273019,"abd_trend_upper":48.2341208,"regions":["north"]},"geometry":{"type":"Polygon","coordinates":[[[-84.27239,46.11544],[-84.64146,46.35524],[-84.29401,46.35524],[-84.0807,46.21618],[-84.0292,46.147],[-84.00305,46.11544],[-84.27239,46.11544]]]}},{"type":"Feature","properties":{"species_code":"yebsap-example","season":"breeding","start_year":2012,"end_year":2022,"start_date":"05-24","end_date":"08-16","srd_id":275361,"longitude":-88.4044469,"latitude":45.9955327,"abd":0.6964481,"abd_ppy":-1.6454969,"abd_ppy_lower":-3.3857636,"abd_ppy_upper":-0.4917422,"abd_ppy_nonzero":true,"abd_trend":-15.2884778,"abd_trend_lower":-29.1383509,"abd_trend_upper":-4.8100224,"regions":["north"]},"geometry":{"type":"MultiPolygon","coordinates":[[[[-88.04129,45.87563],[-88.09735,45.87563],[-88.09648,45.87841],[-88.10442,45.90515],[-88.14992,45.94386],[-88.04129,45.87563]]],[[[-88.76957,46.11544],[-88.42364,46.11544],[-88.15277,45.94565],[-88.35475,45.99229],[-88.49299,46.01352],[-88.60696,46.01396],[-88.76957,46.11544]]]]}},{"type":"Feature","properties":{"species_code":"yebsap-example","season":"breeding","start_year":2012,"end_year":2022,"start_date":"05-24","end_date":"08-16","srd_id":275362,"longitude":-88.0592602,"latitude":45.9955327,"abd":0.6012518,"abd_ppy":-1.1493412,"abd_ppy_lower":-1.9954565,"abd_ppy_upper":0.4674504,"abd_ppy_nonzero":false,"abd_trend":-10.9168264,"abd_trend_lower":-18.2548302,"abd_trend_upper":4.7740687,"regions":["north"]},"geometry":{"type":"Polygon","coordinates":[[[-88.42364,46.11544],[-88.0777,46.11544],[-87.69684,45.87563],[-88.04129,45.87563],[-88.14992,45.94386],[-88.15174,45.94541],[-88.15277,45.94565],[-88.42364,46.11544]]]}},{"type":"Feature","properties":{"species_code":"yebsap-example","season":"breeding","start_year":2012,"end_year":2022,"start_date":"05-24","end_date":"08-16","srd_id":275363,"longitude":-87.7140735,"latitude":45.9955327,"abd":0.5934834,"abd_ppy":-1.9324659,"abd_ppy_lower":-4.2850196,"abd_ppy_upper":-0.5210269,"abd_ppy_nonzero":true,"abd_trend":-17.7279057,"abd_trend_lower":-35.4644305,"abd_trend_upper":-5.0897898,"regions":["north"]},"geometry":{"type":"Polygon","coordinates":[[[-88.0777,46.11544],[-87.73176,46.11544],[-87.3524,45.87563],[-87.69684,45.87563],[-88.0777,46.11544]]]}},{"type":"Feature","properties":{"species_code":"yebsap-example","season":"breeding","start_year":2012,"end_year":2022,"start_date":"05-24","end_date":"08-16","srd_id":275364,"longitude":-87.3688868,"latitude":45.9955327,"abd":0.4399925,"abd_ppy":0.0148911,"abd_ppy_lower":-0.8799936,"abd_ppy_upper":1.5818671,"abd_ppy_nonzero":false,"abd_trend":0.1490112,"abd_trend_lower":-8.4595143,"abd_trend_upper":16.9935473,"regions":["north"]},"geometry":{"type":"Polygon","coordinates":[[[-87.73176,46.11544],[-87.38583,46.11544],[-87.00796,45.87563],[-87.3524,45.87563],[-87.73176,46.11544]]]}},{"type":"Feature","properties":{"species_code":"yebsap-example","season":"breeding","start_year":2012,"end_year":2022,"start_date":"05-24","end_date":"08-16","srd_id":275365,"longitude":-87.0237001,"latitude":45.9955327,"abd":0.3775509,"abd_ppy":-1.1209476,"abd_ppy_lower":-2.4870965,"abd_ppy_upper":0.9255168,"abd_ppy_nonzero":false,"abd_trend":-10.6606149,"abd_trend_lower":-22.2642344,"abd_trend_upper":9.6502985,"regions":["north"]},"geometry":{"type":"Polygon","coordinates":[[[-87.38583,46.11544],[-87.03989,46.11544],[-86.66352,45.87563],[-87.00796,45.87563],[-87.38583,46.11544]]]}},{"type":"Feature","properties":{"species_code":"yebsap-example","season":"breeding","start_year":2012,"end_year":2022,"start_date":"05-24","end_date":"08-16","srd_id":275366,"longitude":-86.6785135,"latitude":45.9955327,"abd":0.4187678,"abd_ppy":-0.6959771,"abd_ppy_lower":-1.865454,"abd_ppy_upper":1.8244346,"abd_ppy_nonzero":false,"abd_trend":-6.7457952,"abd_trend_lower":-17.163989,"abd_trend_upper":19.8174502,"regions":["north"]},"geometry":{"type":"Polygon","coordinates":[[[-87.03989,46.11544],[-86.69395,46.11544],[-86.31908,45.87563],[-86.66352,45.87563],[-87.03989,46.11544]]]}},{"type":"Feature","properties":{"species_code":"yebsap-example","season":"breeding","start_year":2012,"end_year":2022,"start_date":"05-24","end_date":"08-16","srd_id":275367,"longitude":-86.3333268,"latitude":45.9955327,"abd":0.2773782,"abd_ppy":-0.1596402,"abd_ppy_lower":-1.9121287,"abd_ppy_upper":2.4520026,"abd_ppy_nonzero":false,"abd_trend":-1.5849827,"abd_trend_lower":-17.5571308,"abd_trend_upper":27.4102945,"regions":["north"]},"geometry":{"type":"Polygon","coordinates":[[[-86.69395,46.11544],[-86.34801,46.11544],[-85.97464,45.87563],[-86.31908,45.87563],[-86.69395,46.11544]]]}},{"type":"Feature","properties":{"species_code":"yebsap-example","season":"breeding","start_year":2012,"end_year":2022,"start_date":"05-24","end_date":"08-16","srd_id":275368,"longitude":-85.9881401,"latitude":45.9955327,"abd":0.2879614,"abd_ppy":-1.1303965,"abd_ppy_lower":-2.2875016,"abd_ppy_upper":0.947656,"abd_ppy_nonzero":false,"abd_trend":-10.7459513,"abd_trend_lower":-20.6583591,"abd_trend_upper":9.8910677,"regions":["north"]},"geometry":{"type":"Polygon","coordinates":[[[-86.34801,46.11544],[-86.00208,46.11544],[-85.6302,45.87563],[-85.97464,45.87563],[-86.34801,46.11544]]]}},{"type":"Feature","properties":{"species_code":"yebsap-example","season":"breeding","start_year":2012,"end_year":2022,"start_date":"05-24","end_date":"08-16","srd_id":275369,"longitude":-85.6429534,"latitude":45.9955327,"abd":0.3136251,"abd_ppy":-0.5873875,"abd_ppy_lower":-1.8912866,"abd_ppy_upper":0.1929562,"abd_ppy_nonzero":false,"abd_trend":-5.7210214,"abd_trend_lower":-17.3817854,"abd_trend_upper":1.9464034,"regions":["north"]},"geometry":{"type":"Polygon","coordinates":[[[-86.00208,46.11544],[-85.65614,46.11544],[-85.28576,45.87563],[-85.6302,45.87563],[-86.00208,46.11544]]]}},{"type":"Feature","properties":{"species_code":"yebsap-example","season":"breeding","start_year":2012,"end_year":2022,"start_date":"05-24","end_date":"08-16","srd_id":275371,"longitude":-84.9525801,"latitude":45.9955327,"abd":0.3018803,"abd_ppy":-0.2964985,"abd_ppy_lower":-2.3020895,"abd_ppy_upper":1.549583,"abd_ppy_nonzero":false,"abd_trend":-2.9257362,"abd_trend_lower":-20.7767318,"abd_trend_upper":16.6222575,"regions":["north"]},"geometry":{"type":"Polygon","coordinates":[[[-85.3102,46.11544],[-84.96427,46.11544],[-84.59687,45.87563],[-84.94132,45.87563],[-85.3102,46.11544]]]}},{"type":"Feature","properties":{"species_code":"yebsap-example","season":"breeding","start_year":2012,"end_year":2022,"start_date":"05-24","end_date":"08-16","srd_id":275373,"longitude":-84.2622067,"latitude":45.9955327,"abd":0.3175388,"abd_ppy":-0.3481915,"abd_ppy_lower":-2.8917108,"abd_ppy_upper":1.2062492,"abd_ppy_nonzero":false,"abd_trend":-3.4278618,"abd_trend_lower":-25.4301913,"abd_trend_upper":12.7387717,"regions":["north"]},"geometry":{"type":"Polygon","coordinates":[[[-84.61833,46.11544],[-84.27239,46.11544],[-83.90799,45.87563],[-84.25243,45.87563],[-84.61833,46.11544]]]}},{"type":"Feature","properties":{"species_code":"yebsap-example","season":"breeding","start_year":2012,"end_year":2022,"start_date":"05-24","end_date":"08-16","srd_id":275374,"longitude":-83.9170201,"latitude":45.9955327,"abd":0.2302422,"abd_ppy":0.2397101,"abd_ppy_lower":-1.2657762,"abd_ppy_upper":3.228472,"abd_ppy_nonzero":false,"abd_trend":2.4231248,"abd_trend_lower":-11.9605818,"abd_trend_upper":37.4026128,"regions":["north"]},"geometry":{"type":"Polygon","coordinates":[[[-83.56355,45.87563],[-83.90799,45.87563],[-84.27239,46.11544],[-84.00305,46.11544],[-83.97779,46.08491],[-83.91304,46.07289],[-83.87565,46.08192],[-83.56355,45.87563]]]}},{"type":"Feature","properties":{"species_code":"yebsap-example","season":"breeding","start_year":2012,"end_year":2022,"start_date":"05-24","end_date":"08-16","srd_id":275375,"longitude":-83.5718334,"latitude":45.9955327,"abd":0.2589454,"abd_ppy":-1.4852244,"abd_ppy_lower":-4.2174718,"abd_ppy_upper":0.219682,"abd_ppy_nonzero":false,"abd_trend":-13.8979039,"abd_trend_lower":-35.0075422,"abd_trend_upper":2.2186651,"regions":["north"]},"geometry":{"type":"Polygon","coordinates":[[[-83.56355,45.87563],[-83.87565,46.08192],[-83.7632,46.10907],[-83.71948,46.11544],[-83.61376,46.11544],[-83.52476,46.05871],[-83.48015,46.02375],[-83.46947,45.99468],[-83.55205,45.87563],[-83.56355,45.87563]]]}},{"type":"Feature","properties":{"species_code":"yebsap-example","season":"breeding","start_year":2012,"end_year":2022,"start_date":"05-24","end_date":"08-16","srd_id":276864,"longitude":-87.6800726,"latitude":45.7557263,"abd":0.479271,"abd_ppy":-1.3913484,"abd_ppy_lower":-2.4767275,"abd_ppy_upper":0.8140765,"abd_ppy_nonzero":false,"abd_trend":-13.0738989,"abd_trend_lower":-22.1815346,"abd_trend_upper":8.4455566,"regions":["north"]},"geometry":{"type":"Polygon","coordinates":[[[-88.04129,45.87563],[-87.69684,45.87563],[-87.32079,45.63582],[-87.66376,45.63582],[-88.04129,45.87563]]]}},{"type":"Feature","properties":{"species_code":"yebsap-example","season":"breeding","start_year":2012,"end_year":2022,"start_date":"05-24","end_date":"08-16","srd_id":276865,"longitude":-87.3363723,"latitude":45.7557263,"abd":0.3338532,"abd_ppy":0.5151008,"abd_ppy_lower":-1.4851569,"abd_ppy_upper":2.5955173,"abd_ppy_nonzero":false,"abd_trend":5.2720613,"abd_trend_lower":-13.8973136,"abd_trend_upper":29.2063491,"regions":["north"]},"geometry":{"type":"Polygon","coordinates":[[[-87.69684,45.87563],[-87.3524,45.87563],[-86.97783,45.63582],[-87.32079,45.63582],[-87.69684,45.87563]]]}},{"type":"Feature","properties":{"species_code":"yebsap-example","season":"breeding","start_year":2012,"end_year":2022,"start_date":"05-24","end_date":"08-16","srd_id":276872,"longitude":-84.9304704,"latitude":45.7557263,"abd":0.275998,"abd_ppy":0.6103275,"abd_ppy_lower":-1.5375001,"abd_ppy_upper":1.9985893,"abd_ppy_nonzero":false,"abd_trend":6.2736577,"abd_trend_lower":-14.3537047,"abd_trend_upper":21.8825842,"regions":["north"]},"geometry":{"type":"Polygon","coordinates":[[[-85.28576,45.87563],[-84.94132,45.87563],[-84.57708,45.63582],[-84.92004,45.63582],[-85.28576,45.87563]]]}},{"type":"Feature","properties":{"species_code":"yebsap-example","season":"breeding","start_year":2012,"end_year":2022,"start_date":"05-24","end_date":"08-16","srd_id":278365,"longitude":-87.6478921,"latitude":45.51592,"abd":0.3884935,"abd_ppy":-0.6762578,"abd_ppy_lower":-2.1602658,"abd_ppy_upper":0.8023073,"abd_ppy_nonzero":false,"abd_trend":-6.5604497,"abd_trend_lower":-19.6191408,"abd_trend_upper":8.3190215,"regions":["north","central"]},"geometry":{"type":"Polygon","coordinates":[[[-87.66376,45.63582],[-87.29097,45.39602],[-87.63248,45.39602],[-87.81511,45.51316],[-87.81466,45.56324],[-87.79456,45.59603],[-87.80729,45.63582],[-87.66376,45.63582]]]}},{"type":"Feature","properties":{"species_code":"yebsap-example","season":"breeding","start_year":2012,"end_year":2022,"start_date":"05-24","end_date":"08-16","srd_id":278366,"longitude":-87.3056595,"latitude":45.51592,"abd":0.3081975,"abd_ppy":-0.993608,"abd_ppy_lower":-2.6085247,"abd_ppy_upper":-0.1810838,"abd_ppy_nonzero":true,"abd_trend":-9.5033833,"abd_trend_lower":-23.226835,"abd_trend_upper":-1.7961531,"regions":["north","central"]},"geometry":{"type":"Polygon","coordinates":[[[-87.29097,45.39602],[-87.66376,45.63582],[-87.32079,45.63582],[-87.03659,45.45236],[-87.11527,45.45236],[-87.15998,45.39602],[-87.29097,45.39602]]]}},{"type":"Feature","properties":{"species_code":"yebsap-example","season":"breeding","start_year":2012,"end_year":2022,"start_date":"05-24","end_date":"08-16","srd_id":278373,"longitude":-84.9100313,"latitude":45.51592,"abd":0.3475256,"abd_ppy":0.1937517,"abd_ppy_lower":-1.2486313,"abd_ppy_upper":0.7925268,"abd_ppy_nonzero":false,"abd_trend":1.9544975,"abd_trend_lower":-11.8075843,"abd_trend_upper":8.2139699,"regions":["north","central"]},"geometry":{"type":"Polygon","coordinates":[[[-85.26301,45.63582],[-84.92004,45.63582],[-84.55893,45.39602],[-84.90043,45.39602],[-85.26301,45.63582]]]}},{"type":"Feature","properties":{"species_code":"yebsap-example","season":"breeding","start_year":2012,"end_year":2022,"start_date":"05-24","end_date":"08-16","srd_id":278374,"longitude":-84.5677986,"latitude":45.51592,"abd":0.343616,"abd_ppy":0.0545957,"abd_ppy_lower":-1.5013406,"abd_ppy_upper":1.2545385,"abd_ppy_nonzero":false,"abd_trend":0.5473,"abd_trend_lower":-14.0386558,"abd_trend_upper":13.2778467,"regions":["north","central"]},"geometry":{"type":"Polygon","coordinates":[[[-84.92004,45.63582],[-84.57708,45.63582],[-84.21742,45.39602],[-84.55893,45.39602],[-84.92004,45.63582]]]}},{"type":"Feature","properties":{"species_code":"yebsap-example","season":"breeding","start_year":2012,"end_year":2022,"start_date":"05-24","end_date":"08-16","srd_id":278375,"longitude":-84.225566,"latitude":45.51592,"abd":0.3582887,"abd_ppy":-0.0519091,"abd_ppy_lower":-2.0725007,"abd_ppy_upper":1.4918226,"abd_ppy_nonzero":false,"abd_trend":-0.5178804,"abd_trend_lower":-18.8951839,"abd_trend_upper":15.9606173,"regions":["north","central"]},"geometry":{"type":"Polygon","coordinates":[[[-84.57708,45.63582],[-84.23411,45.63582],[-83.87592,45.39602],[-84.21742,45.39602],[-84.57708,45.63582]]]}},{"type":"Feature","properties":{"species_code":"yebsap-example","season":"breeding","start_year":2012,"end_year":2022,"start_date":"05-24","end_date":"08-16","srd_id":279866,"longitude":-87.6175136,"latitude":45.2761136,"abd":0.2550785,"abd_ppy":0.4103403,"abd_ppy_lower":-1.5266485,"abd_ppy_upper":1.881508,"abd_ppy_nonzero":false,"abd_trend":4.1800087,"abd_trend_lower":-14.2592666,"abd_trend_upper":20.4907323,"regions":["central"]},"geometry":{"type":"Polygon","coordinates":[[[-87.60299,45.15621],[-87.72039,45.23219],[-87.72092,45.24277],[-87.66271,45.34519],[-87.65757,45.3618],[-87.66423,45.37129],[-87.69639,45.38283],[-87.76856,45.36436],[-87.84182,45.36079],[-87.86543,45.36782],[-87.87491,45.38539],[-87.87457,45.39602],[-87.63248,45.39602],[-87.36054,45.21964],[-87.4198,45.18386],[-87.42926,45.15621],[-87.60299,45.15621]]]}},{"type":"Feature","properties":{"species_code":"yebsap-example","season":"breeding","start_year":2012,"end_year":2022,"start_date":"05-24","end_date":"08-16","srd_id":279873,"longitude":-85.2320301,"latitude":45.2761136,"abd":0.2221002,"abd_ppy":1.3019523,"abd_ppy_lower":-2.4543835,"abd_ppy_upper":2.8448745,"abd_ppy_nonzero":false,"abd_trend":13.8094045,"abd_trend_lower":-22.0030574,"abd_trend_upper":32.3812648,"regions":["central"]},"geometry":{"type":"Polygon","coordinates":[[[-85.58344,45.39602],[-85.24194,45.39602],[-84.88247,45.15621],[-85.22254,45.15621],[-85.58344,45.39602]]]}},{"type":"Feature","properties":{"species_code":"yebsap-example","season":"breeding","start_year":2012,"end_year":2022,"start_date":"05-24","end_date":"08-16","srd_id":279874,"longitude":-84.8912467,"latitude":45.2761136,"abd":0.3755204,"abd_ppy":-0.541817,"abd_ppy_lower":-1.7483578,"abd_ppy_upper":1.5186667,"abd_ppy_nonzero":false,"abd_trend":-5.2879566,"abd_trend_lower":-16.1702486,"abd_trend_upper":16.2676922,"regions":["central"]},"geometry":{"type":"Polygon","coordinates":[[[-85.24194,45.39602],[-84.90043,45.39602],[-84.5424,45.15621],[-84.88247,45.15621],[-85.24194,45.39602]]]}},{"type":"Feature","properties":{"species_code":"yebsap-example","season":"breeding","start_year":2012,"end_year":2022,"start_date":"05-24","end_date":"08-16","srd_id":279875,"longitude":-84.5504634,"latitude":45.2761136,"abd":0.4566357,"abd_ppy":0.0240504,"abd_ppy_lower":-1.8148917,"abd_ppy_upper":1.2339664,"abd_ppy_nonzero":false,"abd_trend":0.240764,"abd_trend_lower":-16.7361989,"abd_trend_upper":13.0479084,"regions":["central"]},"geometry":{"type":"Polygon","coordinates":[[[-84.90043,45.39602],[-84.55893,45.39602],[-84.20234,45.15621],[-84.5424,45.15621],[-84.90043,45.39602]]]}},{"type":"Feature","properties":{"species_code":"yebsap-example","season":"breeding","start_year":2012,"end_year":2022,"start_date":"05-24","end_date":"08-16","srd_id":279876,"longitude":-84.20968,"latitude":45.2761136,"abd":0.4186264,"abd_ppy":-0.4861364,"abd_ppy_lower":-1.736796,"abd_ppy_upper":1.6056557,"abd_ppy_nonzero":false,"abd_trend":-4.7563836,"abd_trend_lower":-16.0715492,"abd_trend_upper":17.267814,"regions":["central"]},"geometry":{"type":"Polygon","coordinates":[[[-84.55893,45.39602],[-84.21742,45.39602],[-83.86227,45.15621],[-84.20234,45.15621],[-84.55893,45.39602]]]}},{"type":"Feature","properties":{"species_code":"yebsap-example","season":"breeding","start_year":2012,"end_year":2022,"start_date":"05-24","end_date":"08-16","srd_id":279877,"longitude":-83.8688967,"latitude":45.2761136,"abd":0.3744998,"abd_ppy":-0.0701125,"abd_ppy_lower":-2.3287411,"abd_ppy_upper":2.0254134,"abd_ppy_nonzero":false,"abd_trend":-0.6989175,"abd_trend_lower":-20.9925844,"abd_trend_upper":22.2034965,"regions":["central"]},"geometry":{"type":"Polygon","coordinates":[[[-84.21742,45.39602],[-83.87592,45.39602],[-83.52221,45.15621],[-83.86227,45.15621],[-84.21742,45.39602]]]}},{"type":"Feature","properties":{"species_code":"yebsap-example","season":"breeding","start_year":2012,"end_year":2022,"start_date":"05-24","end_date":"08-16","srd_id":279878,"longitude":-83.5281133,"latitude":45.2761136,"abd":0.2407176,"abd_ppy":1.3723641,"abd_ppy_lower":-0.9072584,"abd_ppy_upper":3.0613214,"abd_ppy_nonzero":false,"abd_trend":14.6029365,"abd_trend_lower":-8.7110013,"abd_trend_upper":35.1938901,"regions":["central"]},"geometry":{"type":"Polygon","coordinates":[[[-83.87592,45.39602],[-83.53441,45.39602],[-83.18214,45.15621],[-83.52221,45.15621],[-83.87592,45.39602]]]}},{"type":"Feature","properties":{"species_code":"yebsap-example","season":"breeding","start_year":2012,"end_year":2022,"start_date":"05-24","end_date":"08-16","srd_id":281374,"longitude":-85.2134534,"latitude":45.0363072,"abd":0.3290696,"abd_ppy":0.6854712,"abd_ppy_lower":-1.3824549,"abd_ppy_upper":2.0692792,"abd_ppy_nonzero":false,"abd_trend":7.0700652,"abd_trend_lower":-12.9954681,"abd_trend_upper":22.7299279,"regions":["central"]},"geometry":{"type":"Polygon","coordinates":[[[-85.5626,45.15621],[-85.22254,45.15621],[-84.86614,44.9164],[-85.20478,44.9164],[-85.5626,45.15621]]]}},{"type":"Feature","properties":{"species_code":"yebsap-example","season":"breeding","start_year":2012,"end_year":2022,"start_date":"05-24","end_date":"08-16","srd_id":281375,"longitude":-84.8741012,"latitude":45.0363072,"abd":0.3802549,"abd_ppy":-1.367659,"abd_ppy_lower":-2.0185432,"abd_ppy_upper":-0.2900028,"abd_ppy_nonzero":true,"abd_trend":-12.8648443,"abd_trend_lower":-18.4471913,"abd_trend_upper":-2.8624738,"regions":["central"]},"geometry":{"type":"Polygon","coordinates":[[[-85.22254,45.15621],[-84.88247,45.15621],[-84.52749,44.9164],[-84.86614,44.9164],[-85.22254,45.15621]]]}},{"type":"Feature","properties":{"species_code":"yebsap-example","season":"breeding","start_year":2012,"end_year":2022,"start_date":"05-24","end_date":"08-16","srd_id":281376,"longitude":-84.5347489,"latitude":45.0363072,"abd":0.3364953,"abd_ppy":1.0244193,"abd_ppy_lower":-0.4558563,"abd_ppy_upper":2.5239084,"abd_ppy_nonzero":false,"abd_trend":10.7295737,"abd_trend_lower":-4.4661784,"abd_trend_upper":28.3073506,"regions":["central"]},"geometry":{"type":"Polygon","coordinates":[[[-84.88247,45.15621],[-84.5424,45.15621],[-84.18885,44.9164],[-84.52749,44.9164],[-84.88247,45.15621]]]}},{"type":"Feature","properties":{"species_code":"yebsap-example","season":"breeding","start_year":2012,"end_year":2022,"start_date":"05-24","end_date":"08-16","srd_id":281377,"longitude":-84.1953967,"latitude":45.0363072,"abd":0.5058963,"abd_ppy":-0.3716347,"abd_ppy_lower":-1.6115182,"abd_ppy_upper":1.7547187,"abd_ppy_nonzero":false,"abd_trend":-3.6548084,"abd_trend_lower":-14.9953676,"abd_trend_upper":18.9996218,"regions":["central"]},"geometry":{"type":"Polygon","coordinates":[[[-84.5424,45.15621],[-84.20234,45.15621],[-83.85021,44.9164],[-84.18885,44.9164],[-84.5424,45.15621]]]}},{"type":"Feature","properties":{"species_code":"yebsap-example","season":"breeding","start_year":2012,"end_year":2022,"start_date":"05-24","end_date":"08-16","srd_id":281378,"longitude":-83.8560444,"latitude":45.0363072,"abd":0.3916771,"abd_ppy":0.8323074,"abd_ppy_lower":-1.4905004,"abd_ppy_upper":1.6673666,"abd_ppy_nonzero":false,"abd_trend":8.6418251,"abd_trend_lower":-13.9440051,"abd_trend_upper":17.9819976,"regions":["central"]},"geometry":{"type":"Polygon","coordinates":[[[-84.20234,45.15621],[-83.86227,45.15621],[-83.51156,44.9164],[-83.85021,44.9164],[-84.20234,45.15621]]]}},{"type":"Feature","properties":{"species_code":"yebsap-example","season":"breeding","start_year":2012,"end_year":2022,"start_date":"05-24","end_date":"08-16","srd_id":281379,"longitude":-83.5166922,"latitude":45.0363072,"abd":0.3137701,"abd_ppy":-0.6824695,"abd_ppy_lower":-2.2938836,"abd_ppy_upper":1.0192451,"abd_ppy_nonzero":false,"abd_trend":-6.6188703,"abd_trend_lower":-20.710165,"abd_trend_upper":10.672874,"regions":["central"]},"geometry":{"type":"Polygon","coordinates":[[[-83.86227,45.15621],[-83.52221,45.15621],[-83.17292,44.9164],[-83.51156,44.9164],[-83.86227,45.15621]]]}},{"type":"Feature","properties":{"species_code":"yebsap-example","season":"breeding","start_year":2012,"end_year":2022,"start_date":"05-24","end_date":"08-16","srd_id":282873,"longitude":-85.8723964,"latitude":44.7965009,"abd":0.2426693,"abd_ppy":1.3033396,"abd_ppy_lower":-0.3425844,"abd_ppy_upper":1.9786656,"abd_ppy_nonzero":false,"abd_trend":13.8249915,"abd_trend_lower":-3.3735101,"abd_trend_upper":21.6447161,"regions":["central"]},"geometry":{"type":"Polygon","coordinates":[[[-86.22071,44.9164],[-85.88207,44.9164],[-85.5259,44.6766],[-85.86314,44.6766],[-86.22071,44.9164]]]}},{"type":"Feature","properties":{"species_code":"yebsap-example","season":"breeding","start_year":2012,"end_year":2022,"start_date":"05-24","end_date":"08-16","srd_id":282875,"longitude":-85.1965183,"latitude":44.7965009,"abd":0.2900895,"abd_ppy":0.2777037,"abd_ppy_lower":-1.7818381,"abd_ppy_upper":1.3081798,"abd_ppy_nonzero":false,"abd_trend":2.8119988,"abd_trend_lower":-16.4554699,"abd_trend_upper":13.8793884,"regions":["central"]},"geometry":{"type":"Polygon","coordinates":[[[-85.54343,44.9164],[-85.20478,44.9164],[-84.85142,44.6766],[-85.18866,44.6766],[-85.54343,44.9164]]]}},{"type":"Feature","properties":{"species_code":"yebsap-example","season":"breeding","start_year":2012,"end_year":2022,"start_date":"05-24","end_date":"08-16","srd_id":282876,"longitude":-84.8585793,"latitude":44.7965009,"abd":0.3628682,"abd_ppy":-0.3336512,"abd_ppy_lower":-1.5401636,"abd_ppy_upper":0.5252185,"abd_ppy_nonzero":false,"abd_trend":-3.2868596,"abd_trend_lower":-14.3768706,"abd_trend_upper":5.378074,"regions":["central"]},"geometry":{"type":"Polygon","coordinates":[[[-85.20478,44.9164],[-84.86614,44.9164],[-84.51418,44.6766],[-84.85142,44.6766],[-85.20478,44.9164]]]}},{"type":"Feature","properties":{"species_code":"yebsap-example","season":"breeding","start_year":2012,"end_year":2022,"start_date":"05-24","end_date":"08-16","srd_id":282877,"longitude":-84.5206403,"latitude":44.7965009,"abd":0.3560078,"abd_ppy":0.6221757,"abd_ppy_lower":-1.3201599,"abd_ppy_upper":2.0353526,"abd_ppy_nonzero":false,"abd_trend":6.3988755,"abd_trend_lower":-12.4443108,"abd_trend_upper":22.3225981,"regions":["central"]},"geometry":{"type":"Polygon","coordinates":[[[-84.86614,44.9164],[-84.52749,44.9164],[-84.17694,44.6766],[-84.51418,44.6766],[-84.86614,44.9164]]]}},{"type":"Feature","properties":{"species_code":"yebsap-example","season":"breeding","start_year":2012,"end_year":2022,"start_date":"05-24","end_date":"08-16","srd_id":282878,"longitude":-84.1827013,"latitude":44.7965009,"abd":0.3937492,"abd_ppy":-0.1948767,"abd_ppy_lower":-1.4195428,"abd_ppy_upper":1.18451,"abd_ppy_nonzero":false,"abd_trend":-1.931766,"abd_trend_lower":-13.32212,"abd_trend_upper":12.4968419,"regions":["central"]},"geometry":{"type":"Polygon","coordinates":[[[-84.52749,44.9164],[-84.18885,44.9164],[-83.83971,44.6766],[-84.17694,44.6766],[-84.52749,44.9164]]]}},{"type":"Feature","properties":{"species_code":"yebsap-example","season":"breeding","start_year":2012,"end_year":2022,"start_date":"05-24","end_date":"08-16","srd_id":282879,"longitude":-83.8447623,"latitude":44.7965009,"abd":0.546648,"abd_ppy":-1.381843,"abd_ppy_lower":-1.9981942,"abd_ppy_upper":-0.0254953,"abd_ppy_nonzero":true,"abd_trend":-12.9900701,"abd_trend_lower":-18.2776626,"abd_trend_upper":-0.2546607,"regions":["central"]},"geometry":{"type":"Polygon","coordinates":[[[-84.18885,44.9164],[-83.85021,44.9164],[-83.50247,44.6766],[-83.83971,44.6766],[-84.18885,44.9164]]]}},{"type":"Feature","properties":{"species_code":"yebsap-example","season":"breeding","start_year":2012,"end_year":2022,"start_date":"05-24","end_date":"08-16","srd_id":282880,"longitude":-83.5068233,"latitude":44.7965009,"abd":0.4488712,"abd_ppy":0.2783321,"abd_ppy_lower":-0.7245094,"abd_ppy_upper":2.4484671,"abd_ppy_nonzero":false,"abd_trend":2.8184415,"abd_trend_lower":-7.0133888,"abd_trend_upper":27.3663328,"regions":["central"]},"geometry":{"type":"Polygon","coordinates":[[[-83.85021,44.9164],[-83.51156,44.9164],[-83.16523,44.6766],[-83.50247,44.6766],[-83.85021,44.9164]]]}},{"type":"Feature","properties":{"species_code":"yebsap-example","season":"breeding","start_year":2012,"end_year":2022,"start_date":"05-24","end_date":"08-16","srd_id":284373,"longitude":-86.1908398,"latitude":44.5566945,"abd":0.2338763,"abd_ppy":1.1179113,"abd_ppy_lower":0.4478059,"abd_ppy_upper":2.1201683,"abd_ppy_nonzero":true,"abd_trend":11.7585866,"abd_trend_lower":4.5693833,"abd_trend_upper":23.3432018,"regions":["central"]},"geometry":{"type":"Polygon","coordinates":[[[-86.53762,44.6766],[-86.20038,44.6766],[-85.84586,44.43679],[-86.18172,44.43679],[-86.53762,44.6766]]]}},{"type":"Feature","properties":{"species_code":"yebsap-example","season":"breeding","start_year":2012,"end_year":2022,"start_date":"05-24","end_date":"08-16","srd_id":284374,"longitude":-85.8542964,"latitude":44.5566945,"abd":0.2809412,"abd_ppy":0.536937,"abd_ppy_lower":-1.0045103,"abd_ppy_upper":0.8525713,"abd_ppy_nonzero":false,"abd_trend":5.5009808,"abd_trend_lower":-9.6029863,"abd_trend_upper":8.8603569,"regions":["central"]},"geometry":{"type":"Polygon","coordinates":[[[-86.20038,44.6766],[-85.86314,44.6766],[-85.51001,44.43679],[-85.84586,44.43679],[-86.20038,44.6766]]]}},{"type":"Feature","properties":{"species_code":"yebsap-example","season":"breeding","start_year":2012,"end_year":2022,"start_date":"05-24","end_date":"08-16","srd_id":284375,"longitude":-85.5177531,"latitude":44.5566945,"abd":0.2903907,"abd_ppy":0.3123615,"abd_ppy_lower":-1.7150345,"abd_ppy_upper":1.6709903,"abd_ppy_nonzero":false,"abd_trend":3.1678889,"abd_trend_lower":-15.8854948,"abd_trend_upper":18.0240565,"regions":["central"]},"geometry":{"type":"Polygon","coordinates":[[[-85.86314,44.6766],[-85.5259,44.6766],[-85.17416,44.43679],[-85.51001,44.43679],[-85.86314,44.6766]]]}},{"type":"Feature","properties":{"species_code":"yebsap-example","season":"breeding","start_year":2012,"end_year":2022,"start_date":"05-24","end_date":"08-16","srd_id":284376,"longitude":-85.1812097,"latitude":44.5566945,"abd":0.3799081,"abd_ppy":-0.0806723,"abd_ppy_lower":-2.9250994,"abd_ppy_upper":1.9712859,"abd_ppy_nonzero":false,"abd_trend":-0.8038009,"abd_trend_lower":-25.6861866,"abd_trend_upper":21.5567165,"regions":["central"]},"geometry":{"type":"Polygon","coordinates":[[[-85.5259,44.6766],[-85.18866,44.6766],[-84.83831,44.43679],[-85.17416,44.43679],[-85.5259,44.6766]]]}},{"type":"Feature","properties":{"species_code":"yebsap-example","season":"breeding","start_year":2012,"end_year":2022,"start_date":"05-24","end_date":"08-16","srd_id":284377,"longitude":-84.8446663,"latitude":44.5566945,"abd":0.3093087,"abd_ppy":0.5963359,"abd_ppy_lower":-0.430842,"abd_ppy_upper":2.8093482,"abd_ppy_nonzero":false,"abd_trend":6.1259584,"abd_trend_lower":-4.225841,"abd_trend_upper":31.9246823,"regions":["central"]},"geometry":{"type":"Polygon","coordinates":[[[-85.18866,44.6766],[-84.85142,44.6766],[-84.50246,44.43679],[-84.83831,44.43679],[-85.18866,44.6766]]]}},{"type":"Feature","properties":{"species_code":"yebsap-example","season":"breeding","start_year":2012,"end_year":2022,"start_date":"05-24","end_date":"08-16","srd_id":284378,"longitude":-84.508123,"latitude":44.5566945,"abd":0.305932,"abd_ppy":-0.1613286,"abd_ppy_lower":-1.549574,"abd_ppy_upper":1.610144,"abd_ppy_nonzero":false,"abd_trend":-1.6016242,"abd_trend_lower":-14.4586704,"abd_trend_upper":17.3196259,"regions":["central"]},"geometry":{"type":"Polygon","coordinates":[[[-84.85142,44.6766],[-84.51418,44.6766],[-84.1666,44.43679],[-84.50246,44.43679],[-84.85142,44.6766]]]}},{"type":"Feature","properties":{"species_code":"yebsap-example","season":"breeding","start_year":2012,"end_year":2022,"start_date":"05-24","end_date":"08-16","srd_id":284379,"longitude":-84.1715796,"latitude":44.5566945,"abd":0.4222283,"abd_ppy":-0.6940045,"abd_ppy_lower":-2.3259991,"abd_ppy_upper":0.8643495,"abd_ppy_nonzero":false,"abd_trend":-6.7272689,"abd_trend_lower":-20.9704015,"abd_trend_upper":8.9875574,"regions":["central"]},"geometry":{"type":"Polygon","coordinates":[[[-84.51418,44.6766],[-84.17694,44.6766],[-83.83075,44.43679],[-84.1666,44.43679],[-84.51418,44.6766]]]}},{"type":"Feature","properties":{"species_code":"yebsap-example","season":"breeding","start_year":2012,"end_year":2022,"start_date":"05-24","end_date":"08-16","srd_id":284380,"longitude":-83.8350363,"latitude":44.5566945,"abd":0.4450038,"abd_ppy":-0.0815364,"abd_ppy_lower":-0.955637,"abd_ppy_upper":1.2365598,"abd_ppy_nonzero":false,"abd_trend":-0.8123792,"abd_trend_lower":-9.155711,"abd_trend_upper":13.0768725,"regions":["central"]},"geometry":{"type":"Polygon","coordinates":[[[-84.17694,44.6766],[-83.83971,44.6766],[-83.4949,44.43679],[-83.83075,44.43679],[-84.17694,44.6766]]]}},{"type":"Feature","properties":{"species_code":"yebsap-example","season":"breeding","start_year":2012,"end_year":2022,"start_date":"05-24","end_date":"08-16","srd_id":284381,"longitude":-83.4984929,"latitude":44.5566945,"abd":0.3944089,"abd_ppy":0.6322668,"abd_ppy_lower":-2.2799541,"abd_ppy_upper":1.9584545,"abd_ppy_nonzero":false,"abd_trend":6.5056274,"abd_trend_lower":-20.597053,"abd_trend_upper":21.403844,"regions":["central"]},"geometry":{"type":"Polygon","coordinates":[[[-83.83971,44.6766],[-83.50247,44.6766],[-83.15905,44.43679],[-83.4949,44.43679],[-83.83971,44.6766]]]}},{"type":"Feature","properties":{"species_code":"yebsap-example","season":"breeding","start_year":2012,"end_year":2022,"start_date":"05-24","end_date":"08-16","srd_id":285874,"longitude":-86.1730079,"latitude":44.3168881,"abd":0.2275603,"abd_ppy":0.6135106,"abd_ppy_lower":-0.5405833,"abd_ppy_upper":2.1297975,"abd_ppy_nonzero":false,"abd_trend":6.3072853,"abd_trend_lower":-5.2762071,"abd_trend_upper":23.4595558,"regions":["central"]},"geometry":{"type":"Polygon","coordinates":[[[-86.51757,44.43679],[-86.18172,44.43679],[-85.83023,44.19698],[-86.16471,44.19698],[-86.51757,44.43679]]]}},{"type":"Feature","properties":{"species_code":"yebsap-example","season":"breeding","start_year":2012,"end_year":2022,"start_date":"05-24","end_date":"08-16","srd_id":285875,"longitude":-85.8378428,"latitude":44.3168881,"abd":0.3398813,"abd_ppy":-0.9393147,"abd_ppy_lower":-1.9699306,"abd_ppy_upper":0.3289136,"abd_ppy_nonzero":false,"abd_trend":-9.0058901,"abd_trend_lower":-18.0416696,"abd_trend_upper":3.338248,"regions":["central"]},"geometry":{"type":"Polygon","coordinates":[[[-86.18172,44.43679],[-85.84586,44.43679],[-85.49575,44.19698],[-85.83023,44.19698],[-86.18172,44.43679]]]}},{"type":"Feature","properties":{"species_code":"yebsap-example","season":"breeding","start_year":2012,"end_year":2022,"start_date":"05-24","end_date":"08-16","srd_id":285876,"longitude":-85.5026778,"latitude":44.3168881,"abd":0.2594119,"abd_ppy":0.0963235,"abd_ppy_lower":-0.7486449,"abd_ppy_upper":0.6288585,"abd_ppy_nonzero":false,"abd_trend":0.9674214,"abd_trend_lower":-7.2392078,"abd_trend_upper":6.4695604,"regions":["central"]},"geometry":{"type":"Polygon","coordinates":[[[-85.84586,44.43679],[-85.51001,44.43679],[-85.16126,44.19698],[-85.49575,44.19698],[-85.84586,44.43679]]]}},{"type":"Feature","properties":{"species_code":"yebsap-example","season":"breeding","start_year":2012,"end_year":2022,"start_date":"05-24","end_date":"08-16","srd_id":285877,"longitude":-85.1675128,"latitude":44.3168881,"abd":0.1964899,"abd_ppy":-0.7841622,"abd_ppy_lower":-1.9750188,"abd_ppy_upper":0.386012,"abd_ppy_nonzero":false,"abd_trend":-7.5706199,"abd_trend_lower":-18.0842002,"abd_trend_upper":3.9278677,"regions":["central"]},"geometry":{"type":"Polygon","coordinates":[[[-85.51001,44.43679],[-85.17416,44.43679],[-84.82678,44.19698],[-85.16126,44.19698],[-85.51001,44.43679]]]}},{"type":"Feature","properties":{"species_code":"yebsap-example","season":"breeding","start_year":2012,"end_year":2022,"start_date":"05-24","end_date":"08-16","srd_id":285878,"longitude":-84.8323477,"latitude":44.3168881,"abd":0.2658526,"abd_ppy":0.790575,"abd_ppy_lower":-2.4420362,"abd_ppy_upper":2.5270957,"abd_ppy_nonzero":false,"abd_trend":8.1930163,"abd_trend_lower":-21.9042733,"abd_trend_upper":28.347245,"regions":["central"]},"geometry":{"type":"Polygon","coordinates":[[[-85.17416,44.43679],[-84.83831,44.43679],[-84.4923,44.19698],[-84.82678,44.19698],[-85.17416,44.43679]]]}},{"type":"Feature","properties":{"species_code":"yebsap-example","season":"breeding","start_year":2012,"end_year":2022,"start_date":"05-24","end_date":"08-16","srd_id":285879,"longitude":-84.4971827,"latitude":44.3168881,"abd":0.3635421,"abd_ppy":-1.2932408,"abd_ppy_lower":-3.0567185,"abd_ppy_upper":-0.4537845,"abd_ppy_nonzero":true,"abd_trend":-12.2051719,"abd_trend_lower":-26.6876458,"abd_trend_upper":-4.4462934,"regions":["central"]},"geometry":{"type":"Polygon","coordinates":[[[-84.83831,44.43679],[-84.50246,44.43679],[-84.15782,44.19698],[-84.4923,44.19698],[-84.83831,44.43679]]]}},{"type":"Feature","properties":{"species_code":"yebsap-example","season":"breeding","start_year":2012,"end_year":2022,"start_date":"05-24","end_date":"08-16","srd_id":285880,"longitude":-84.1620177,"latitude":44.3168881,"abd":0.3478562,"abd_ppy":-1.5741412,"abd_ppy_lower":-2.928931,"abd_ppy_upper":-0.1579438,"abd_ppy_nonzero":true,"abd_trend":-14.6718899,"abd_trend_lower":-25.715514,"abd_trend_upper":-1.5682596,"regions":["central"]},"geometry":{"type":"Polygon","coordinates":[[[-84.50246,44.43679],[-84.1666,44.43679],[-83.82334,44.19698],[-84.15782,44.19698],[-84.50246,44.43679]]]}},{"type":"Feature","properties":{"species_code":"yebsap-example","season":"breeding","start_year":2012,"end_year":2022,"start_date":"05-24","end_date":"08-16","srd_id":285881,"longitude":-83.8268526,"latitude":44.3168881,"abd":0.3797267,"abd_ppy":-0.331921,"abd_ppy_lower":-2.1007312,"abd_ppy_upper":1.1883653,"abd_ppy_nonzero":false,"abd_trend":-3.2700696,"abd_trend_lower":-19.1286897,"abd_trend_upper":12.5397124,"regions":["central"]},"geometry":{"type":"Polygon","coordinates":[[[-84.1666,44.43679],[-83.83075,44.43679],[-83.48885,44.19698],[-83.82334,44.19698],[-84.1666,44.43679]]]}},{"type":"Feature","properties":{"species_code":"yebsap-example","season":"breeding","start_year":2012,"end_year":2022,"start_date":"05-24","end_date":"08-16","srd_id":285882,"longitude":-83.4916876,"latitude":44.3168881,"abd":0.2213091,"abd_ppy":1.2981218,"abd_ppy_lower":-2.8197026,"abd_ppy_upper":2.6095664,"abd_ppy_nonzero":false,"abd_trend":13.766378,"abd_trend_lower":-24.8753887,"abd_trend_upper":29.3833899,"regions":["central"]},"geometry":{"type":"Polygon","coordinates":[[[-83.83075,44.43679],[-83.4949,44.43679],[-83.15437,44.19698],[-83.48885,44.19698],[-83.83075,44.43679]]]}},{"type":"Feature","properties":{"species_code":"yebsap-example","season":"breeding","start_year":2012,"end_year":2022,"start_date":"05-24","end_date":"08-16","srd_id":287374,"longitude":-86.4906283,"latitude":44.0770818,"abd":0.0618013,"abd_ppy":0.6116055,"abd_ppy_lower":-0.5213041,"abd_ppy_upper":2.979525,"abd_ppy_nonzero":false,"abd_trend":6.2871577,"abd_trend_lower":-5.0924349,"abd_trend_upper":34.1247246,"regions":["central","south"]},"geometry":{"type":"Polygon","coordinates":[[[-86.83368,44.19698],[-86.49919,44.19698],[-86.14935,43.95718],[-86.48248,43.95718],[-86.83368,44.19698]]]}},{"type":"Feature","properties":{"species_code":"yebsap-example","season":"breeding","start_year":2012,"end_year":2022,"start_date":"05-24","end_date":"08-16","srd_id":287375,"longitude":-86.1568246,"latitude":44.0770818,"abd":0.2128579,"abd_ppy":0.4435618,"abd_ppy_lower":-0.1017889,"abd_ppy_upper":1.5064071,"abd_ppy_nonzero":false,"abd_trend":4.5252092,"abd_trend_lower":-1.0132392,"abd_trend_upper":16.1273618,"regions":["central","south"]},"geometry":{"type":"Polygon","coordinates":[[[-86.49919,44.19698],[-86.16471,44.19698],[-85.81622,43.95718],[-86.14935,43.95718],[-86.49919,44.19698]]]}},{"type":"Feature","properties":{"species_code":"yebsap-example","season":"breeding","start_year":2012,"end_year":2022,"start_date":"05-24","end_date":"08-16","srd_id":287376,"longitude":-85.8230208,"latitude":44.0770818,"abd":0.3036223,"abd_ppy":-0.9477,"abd_ppy_lower":-2.4478238,"abd_ppy_upper":0.3598868,"abd_ppy_nonzero":false,"abd_trend":-9.0828852,"abd_trend_lower":-21.9505909,"abd_trend_upper":3.6577147,"regions":["central","south"]},"geometry":{"type":"Polygon","coordinates":[[[-86.16471,44.19698],[-85.83023,44.19698],[-85.48309,43.95718],[-85.81622,43.95718],[-86.16471,44.19698]]]}},{"type":"Feature","properties":{"species_code":"yebsap-example","season":"breeding","start_year":2012,"end_year":2022,"start_date":"05-24","end_date":"08-16","srd_id":287377,"longitude":-85.489217,"latitude":44.0770818,"abd":0.2513188,"abd_ppy":0.9476816,"abd_ppy_lower":-0.2164066,"abd_ppy_upper":2.1774499,"abd_ppy_nonzero":false,"abd_trend":9.8913455,"abd_trend_lower":-2.1431126,"abd_trend_upper":24.0368116,"regions":["central","south"]},"geometry":{"type":"Polygon","coordinates":[[[-85.83023,44.19698],[-85.49575,44.19698],[-85.14996,43.95718],[-85.48309,43.95718],[-85.83023,44.19698]]]}},{"type":"Feature","properties":{"species_code":"yebsap-example","season":"breeding","start_year":2012,"end_year":2022,"start_date":"05-24","end_date":"08-16","srd_id":287378,"longitude":-85.1554132,"latitude":44.0770818,"abd":0.1758145,"abd_ppy":-1.8903397,"abd_ppy_lower":-2.9210698,"abd_ppy_upper":-0.9734516,"abd_ppy_nonzero":true,"abd_trend":-17.3738114,"abd_trend_lower":-25.6553335,"abd_trend_upper":-9.3189755,"regions":["central","south"]},"geometry":{"type":"Polygon","coordinates":[[[-85.49575,44.19698],[-85.16126,44.19698],[-84.81683,43.95718],[-85.14996,43.95718],[-85.49575,44.19698]]]}},{"type":"Feature","properties":{"species_code":"yebsap-example","season":"breeding","start_year":2012,"end_year":2022,"start_date":"05-24","end_date":"08-16","srd_id":287379,"longitude":-84.8216094,"latitude":44.0770818,"abd":0.2523006,"abd_ppy":-0.381841,"abd_ppy_lower":-2.5764723,"abd_ppy_upper":0.7804803,"abd_ppy_nonzero":false,"abd_trend":-3.7534629,"abd_trend_lower":-22.9737925,"abd_trend_upper":8.0847041,"regions":["central","south"]},"geometry":{"type":"Polygon","coordinates":[[[-85.16126,44.19698],[-84.82678,44.19698],[-84.4837,43.95718],[-84.81683,43.95718],[-85.16126,44.19698]]]}},{"type":"Feature","properties":{"species_code":"yebsap-example","season":"breeding","start_year":2012,"end_year":2022,"start_date":"05-24","end_date":"08-16","srd_id":287380,"longitude":-84.4878057,"latitude":44.0770818,"abd":0.3234789,"abd_ppy":-1.0154142,"abd_ppy_lower":-1.9773271,"abd_ppy_upper":0.0499595,"abd_ppy_nonzero":false,"abd_trend":-9.7025049,"abd_trend_lower":-18.1034872,"abd_trend_upper":0.5007199,"regions":["central","south"]},"geometry":{"type":"Polygon","coordinates":[[[-84.82678,44.19698],[-84.4923,44.19698],[-84.15057,43.95718],[-84.4837,43.95718],[-84.82678,44.19698]]]}},{"type":"Feature","properties":{"species_code":"yebsap-example","season":"breeding","start_year":2012,"end_year":2022,"start_date":"05-24","end_date":"08-16","srd_id":287381,"longitude":-84.1540019,"latitude":44.0770818,"abd":0.3136853,"abd_ppy":1.8112281,"abd_ppy_lower":-0.1852364,"abd_ppy_upper":3.4359629,"abd_ppy_nonzero":false,"abd_trend":19.6621395,"abd_trend_lower":-1.8369992,"abd_trend_upper":40.1895422,"regions":["central","south"]},"geometry":{"type":"Polygon","coordinates":[[[-84.4923,44.19698],[-84.15782,44.19698],[-83.81744,43.95718],[-84.15057,43.95718],[-84.4923,44.19698]]]}},{"type":"Feature","properties":{"species_code":"yebsap-example","season":"breeding","start_year":2012,"end_year":2022,"start_date":"05-24","end_date":"08-16","srd_id":287382,"longitude":-83.8201981,"latitude":44.0770818,"abd":0.264156,"abd_ppy":0.2183231,"abd_ppy_lower":-1.4750796,"abd_ppy_upper":1.9547272,"abd_ppy_nonzero":false,"abd_trend":2.204806,"abd_trend_lower":-13.8091967,"abd_trend_upper":21.3594692,"regions":["central","south"]},"geometry":{"type":"Polygon","coordinates":[[[-84.15782,44.19698],[-83.82334,44.19698],[-83.48431,43.95718],[-83.81744,43.95718],[-84.15782,44.19698]]]}},{"type":"Feature","properties":{"species_code":"yebsap-example","season":"breeding","start_year":2012,"end_year":2022,"start_date":"05-24","end_date":"08-16","srd_id":288876,"longitude":-86.1422751,"latitude":43.8372754,"abd":0.1456868,"abd_ppy":0.5249284,"abd_ppy_lower":-0.874667,"abd_ppy_upper":1.6929513,"abd_ppy_nonzero":false,"abd_trend":5.3750334,"abd_trend_lower":-8.4103094,"abd_trend_upper":18.2792369,"regions":["south"]},"geometry":{"type":"Polygon","coordinates":[[[-86.48248,43.95718],[-86.14935,43.95718],[-85.80382,43.71737],[-86.13561,43.71737],[-86.48248,43.95718]]]}},{"type":"Feature","properties":{"species_code":"yebsap-example","season":"breeding","start_year":2012,"end_year":2022,"start_date":"05-24","end_date":"08-16","srd_id":288877,"longitude":-85.8098157,"latitude":43.8372754,"abd":0.2185558,"abd_ppy":0.0083086,"abd_ppy_lower":-2.0694858,"abd_ppy_upper":1.827366,"abd_ppy_nonzero":false,"abd_trend":0.0831169,"abd_trend_lower":-18.8702104,"abd_trend_upper":19.8519483,"regions":["south"]},"geometry":{"type":"Polygon","coordinates":[[[-86.14935,43.95718],[-85.81622,43.95718],[-85.47202,43.71737],[-85.80382,43.71737],[-86.14935,43.95718]]]}},{"type":"Feature","properties":{"species_code":"yebsap-example","season":"breeding","start_year":2012,"end_year":2022,"start_date":"05-24","end_date":"08-16","srd_id":288878,"longitude":-85.4773564,"latitude":43.8372754,"abd":0.1367019,"abd_ppy":-0.0363215,"abd_ppy_lower":-1.0044232,"abd_ppy_upper":1.3934891,"abd_ppy_nonzero":false,"abd_trend":-0.3626219,"abd_trend_lower":-9.6021906,"abd_trend_upper":14.8419822,"regions":["south"]},"geometry":{"type":"Polygon","coordinates":[[[-85.81622,43.95718],[-85.48309,43.95718],[-85.14023,43.71737],[-85.47202,43.71737],[-85.81622,43.95718]]]}},{"type":"Feature","properties":{"species_code":"yebsap-example","season":"breeding","start_year":2012,"end_year":2022,"start_date":"05-24","end_date":"08-16","srd_id":288879,"longitude":-85.1448971,"latitude":43.8372754,"abd":0.1567806,"abd_ppy":0.1958715,"abd_ppy_lower":-1.3270342,"abd_ppy_upper":1.0536093,"abd_ppy_nonzero":false,"abd_trend":1.9760696,"abd_trend_lower":-12.5052854,"abd_trend_upper":11.0499317,"regions":["south"]},"geometry":{"type":"Polygon","coordinates":[[[-85.48309,43.95718],[-85.14996,43.95718],[-84.80844,43.71737],[-85.14023,43.71737],[-85.48309,43.95718]]]}},{"type":"Feature","properties":{"species_code":"yebsap-example","season":"breeding","start_year":2012,"end_year":2022,"start_date":"05-24","end_date":"08-16","srd_id":288880,"longitude":-84.8124377,"latitude":43.8372754,"abd":0.1187396,"abd_ppy":0.2397482,"abd_ppy_lower":-0.8900126,"abd_ppy_upper":0.9804412,"abd_ppy_nonzero":false,"abd_trend":2.4235139,"abd_trend_lower":-8.5520008,"abd_trend_upper":10.2484873,"regions":["south"]},"geometry":{"type":"Polygon","coordinates":[[[-85.14996,43.95718],[-84.81683,43.95718],[-84.47664,43.71737],[-84.80844,43.71737],[-85.14996,43.95718]]]}},{"type":"Feature","properties":{"species_code":"yebsap-example","season":"breeding","start_year":2012,"end_year":2022,"start_date":"05-24","end_date":"08-16","srd_id":288881,"longitude":-84.4799784,"latitude":43.8372754,"abd":0.2220509,"abd_ppy":0.9445226,"abd_ppy_lower":-1.1129497,"abd_ppy_upper":2.7293117,"abd_ppy_nonzero":false,"abd_trend":9.8569623,"abd_trend_lower":-10.5883259,"abd_trend_upper":30.9012467,"regions":["south"]},"geometry":{"type":"Polygon","coordinates":[[[-84.81683,43.95718],[-84.4837,43.95718],[-84.14485,43.71737],[-84.47664,43.71737],[-84.81683,43.95718]]]}},{"type":"Feature","properties":{"species_code":"yebsap-example","season":"breeding","start_year":2012,"end_year":2022,"start_date":"05-24","end_date":"08-16","srd_id":288882,"longitude":-84.147519,"latitude":43.8372754,"abd":0.2601255,"abd_ppy":-0.8303438,"abd_ppy_lower":-2.2357733,"abd_ppy_upper":3.049841,"abd_ppy_nonzero":false,"abd_trend":-7.9999471,"abd_trend_lower":-20.2373277,"abd_trend_upper":35.0433681,"regions":["south"]},"geometry":{"type":"Polygon","coordinates":[[[-84.4837,43.95718],[-84.15057,43.95718],[-83.81306,43.71737],[-84.14485,43.71737],[-84.4837,43.95718]]]}},{"type":"Feature","properties":{"species_code":"yebsap-example","season":"breeding","start_year":2012,"end_year":2022,"start_date":"05-24","end_date":"08-16","srd_id":288885,"longitude":-83.150141,"latitude":43.8372754,"abd":0.0042829,"abd_ppy":0.9382026,"abd_ppy_lower":-1.3480499,"abd_ppy_upper":2.7634419,"abd_ppy_nonzero":false,"abd_trend":9.7882018,"abd_trend_lower":-12.6914562,"abd_trend_upper":31.3367963,"regions":["south"]},"geometry":{"type":"Polygon","coordinates":[[[-83.48431,43.95718],[-83.15118,43.95718],[-82.81768,43.71737],[-83.14947,43.71737],[-83.48431,43.95718]]]}},{"type":"Feature","properties":{"species_code":"yebsap-example","season":"breeding","start_year":2012,"end_year":2022,"start_date":"05-24","end_date":"08-16","srd_id":288886,"longitude":-82.8176817,"latitude":43.8372754,"abd":0.0092923,"abd_ppy":3.2142142,"abd_ppy_lower":1.9194801,"abd_ppy_upper":4.5322587,"abd_ppy_nonzero":true,"abd_trend":37.2129506,"abd_trend_lower":20.9405663,"abd_trend_upper":55.7770033,"regions":["south"]},"geometry":{"type":"Polygon","coordinates":[[[-83.15118,43.95718],[-82.81805,43.95718],[-82.48588,43.71737],[-82.81768,43.71737],[-83.15118,43.95718]]]}},{"type":"Feature","properties":{"species_code":"yebsap-example","season":"breeding","start_year":2012,"end_year":2022,"start_date":"05-24","end_date":"08-16","srd_id":290376,"longitude":-86.4604765,"latitude":43.5974691,"abd":0.0258302,"abd_ppy":1.5218289,"abd_ppy_lower":-0.531608,"abd_ppy_upper":2.2391598,"abd_ppy_nonzero":false,"abd_trend":16.3039134,"abd_trend_lower":-5.1906934,"abd_trend_upper":24.7879696,"regions":["south"]},"geometry":{"type":"Polygon","coordinates":[[[-86.7992,43.71737],[-86.4674,43.71737],[-86.12348,43.47757],[-86.45396,43.47757],[-86.7992,43.71737]]]}},{"type":"Feature","properties":{"species_code":"yebsap-example","season":"breeding","start_year":2012,"end_year":2022,"start_date":"05-24","end_date":"08-16","srd_id":290377,"longitude":-86.1293451,"latitude":43.5974691,"abd":0.0611299,"abd_ppy":-0.6282909,"abd_ppy_lower":-1.435595,"abd_ppy_upper":0.8694813,"abd_ppy_nonzero":false,"abd_trend":-6.1082152,"abd_trend_lower":-13.4631577,"abd_trend_upper":9.0430207,"regions":["south"]},"geometry":{"type":"Polygon","coordinates":[[[-86.4674,43.71737],[-86.13561,43.71737],[-85.79301,43.47757],[-86.12348,43.47757],[-86.4674,43.71737]]]}},{"type":"Feature","properties":{"species_code":"yebsap-example","season":"breeding","start_year":2012,"end_year":2022,"start_date":"05-24","end_date":"08-16","srd_id":290378,"longitude":-85.7982136,"latitude":43.5974691,"abd":0.1576436,"abd_ppy":0.3136715,"abd_ppy_lower":-0.95798,"abd_ppy_upper":2.3458703,"abd_ppy_nonzero":false,"abd_trend":3.181363,"abd_trend_lower":-9.1771985,"abd_trend_upper":26.096558,"regions":["south"]},"geometry":{"type":"Polygon","coordinates":[[[-86.13561,43.71737],[-85.80382,43.71737],[-85.46254,43.47757],[-85.79301,43.47757],[-86.13561,43.71737]]]}},{"type":"Feature","properties":{"species_code":"yebsap-example","season":"breeding","start_year":2012,"end_year":2022,"start_date":"05-24","end_date":"08-16","srd_id":290379,"longitude":-85.4670821,"latitude":43.5974691,"abd":0.0934087,"abd_ppy":-1.0373179,"abd_ppy_lower":-2.0992056,"abd_ppy_upper":-0.3156949,"abd_ppy_nonzero":true,"abd_trend":-9.9021206,"abd_trend_lower":-19.1160864,"abd_trend_upper":-3.112476,"regions":["south"]},"geometry":{"type":"Polygon","coordinates":[[[-85.80382,43.71737],[-85.47202,43.71737],[-85.13206,43.47757],[-85.46254,43.47757],[-85.80382,43.71737]]]}},{"type":"Feature","properties":{"species_code":"yebsap-example","season":"breeding","start_year":2012,"end_year":2022,"start_date":"05-24","end_date":"08-16","srd_id":290380,"longitude":-85.1359507,"latitude":43.5974691,"abd":0.0530542,"abd_ppy":-1.3594131,"abd_ppy_lower":-2.6969278,"abd_ppy_upper":-0.4042504,"abd_ppy_nonzero":true,"abd_trend":-12.7919697,"abd_trend_lower":-23.9208715,"abd_trend_upper":-3.9697525,"regions":["south"]},"geometry":{"type":"Polygon","coordinates":[[[-85.47202,43.71737],[-85.14023,43.71737],[-84.80159,43.47757],[-85.13206,43.47757],[-85.47202,43.71737]]]}},{"type":"Feature","properties":{"species_code":"yebsap-example","season":"breeding","start_year":2012,"end_year":2022,"start_date":"05-24","end_date":"08-16","srd_id":290381,"longitude":-84.8048192,"latitude":43.5974691,"abd":0.0292728,"abd_ppy":2.2162934,"abd_ppy_lower":0.7634926,"abd_ppy_upper":5.3765971,"abd_ppy_nonzero":true,"abd_trend":24.5091542,"abd_trend_lower":7.9026532,"abd_trend_upper":68.8269212,"regions":["south"]},"geometry":{"type":"Polygon","coordinates":[[[-85.14023,43.71737],[-84.80844,43.71737],[-84.47111,43.47757],[-84.80159,43.47757],[-85.14023,43.71737]]]}},{"type":"Feature","properties":{"species_code":"yebsap-example","season":"breeding","start_year":2012,"end_year":2022,"start_date":"05-24","end_date":"08-16","srd_id":290382,"longitude":-84.4736877,"latitude":43.5974691,"abd":0.2660397,"abd_ppy":1.7919524,"abd_ppy_lower":0.4622275,"abd_ppy_upper":3.2834383,"abd_ppy_nonzero":true,"abd_trend":19.4357778,"abd_trend_lower":4.7196139,"abd_trend_upper":38.135999,"regions":["south"]},"geometry":{"type":"Polygon","coordinates":[[[-84.80844,43.71737],[-84.47664,43.71737],[-84.14064,43.47757],[-84.47111,43.47757],[-84.80844,43.71737]]]}},{"type":"Feature","properties":{"species_code":"yebsap-example","season":"breeding","start_year":2012,"end_year":2022,"start_date":"05-24","end_date":"08-16","srd_id":290383,"longitude":-84.1425563,"latitude":43.5974691,"abd":0.041433,"abd_ppy":2.7332836,"abd_ppy_lower":0.6434458,"abd_ppy_upper":5.9589022,"abd_ppy_nonzero":true,"abd_trend":30.9518671,"abd_trend_lower":6.6240012,"abd_trend_upper":78.3916404,"regions":["south"]},"geometry":{"type":"Polygon","coordinates":[[[-84.47664,43.71737],[-84.14485,43.71737],[-83.81017,43.47757],[-84.14064,43.47757],[-84.47664,43.71737]]]}},{"type":"Feature","properties":{"species_code":"yebsap-example","season":"breeding","start_year":2012,"end_year":2022,"start_date":"05-24","end_date":"08-16","srd_id":290385,"longitude":-83.4802934,"latitude":43.5974691,"abd":0.0296084,"abd_ppy":3.501299,"abd_ppy_lower":0.17689,"abd_ppy_upper":5.2698381,"abd_ppy_nonzero":true,"abd_trend":41.0775817,"abd_trend_lower":1.7830471,"abd_trend_upper":67.1242811,"regions":["south"]},"geometry":{"type":"Polygon","coordinates":[[[-83.81306,43.71737],[-83.48126,43.71737],[-83.14922,43.47757],[-83.47969,43.47757],[-83.81306,43.71737]]]}},{"type":"Feature","properties":{"species_code":"yebsap-example","season":"breeding","start_year":2012,"end_year":2022,"start_date":"05-24","end_date":"08-16","srd_id":290386,"longitude":-83.1491619,"latitude":43.5974691,"abd":0.0203183,"abd_ppy":4.497544,"abd_ppy_lower":2.3369218,"abd_ppy_upper":7.003903,"abd_ppy_nonzero":true,"abd_trend":55.2604479,"abd_trend_lower":25.9863503,"abd_trend_upper":96.7869035,"regions":["south"]},"geometry":{"type":"Polygon","coordinates":[[[-83.48126,43.71737],[-83.14947,43.71737],[-82.81875,43.47757],[-83.14922,43.47757],[-83.48126,43.71737]]]}},{"type":"Feature","properties":{"species_code":"yebsap-example","season":"breeding","start_year":2012,"end_year":2022,"start_date":"05-24","end_date":"08-16","srd_id":290387,"longitude":-82.8180304,"latitude":43.5974691,"abd":0.0306311,"abd_ppy":3.3970672,"abd_ppy_lower":0.4159828,"abd_ppy_upper":6.1758517,"abd_ppy_nonzero":true,"abd_trend":39.6632698,"abd_trend_lower":4.2385667,"abd_trend_upper":82.0780255,"regions":["south"]},"geometry":{"type":"Polygon","coordinates":[[[-83.14947,43.71737],[-82.81768,43.71737],[-82.48827,43.47757],[-82.81875,43.47757],[-83.14947,43.71737]]]}},{"type":"Feature","properties":{"species_code":"yebsap-example","season":"breeding","start_year":2012,"end_year":2022,"start_date":"05-24","end_date":"08-16","srd_id":291878,"longitude":-86.1180205,"latitude":43.3576627,"abd":0.0224261,"abd_ppy":-0.6123401,"abd_ppy_lower":-1.4611017,"abd_ppy_upper":1.459993,"abd_ppy_nonzero":false,"abd_trend":-5.9573943,"abd_trend_lower":-13.6868386,"abd_trend_upper":15.5974567,"regions":["south"]},"geometry":{"type":"Polygon","coordinates":[[[-86.45396,43.47757],[-86.12348,43.47757],[-85.78379,43.23776],[-86.11296,43.23776],[-86.45396,43.47757]]]}},{"type":"Feature","properties":{"species_code":"yebsap-example","season":"breeding","start_year":2012,"end_year":2022,"start_date":"05-24","end_date":"08-16","srd_id":291879,"longitude":-85.7882006,"latitude":43.3576627,"abd":0.0117864,"abd_ppy":-0.4760229,"abd_ppy_lower":-2.1064446,"abd_ppy_upper":0.7004215,"abd_ppy_nonzero":false,"abd_trend":-4.6595439,"abd_trend_lower":-19.1758739,"abd_trend_upper":7.229155,"regions":["south"]},"geometry":{"type":"Polygon","coordinates":[[[-86.12348,43.47757],[-85.79301,43.47757],[-85.45462,43.23776],[-85.78379,43.23776],[-86.12348,43.47757]]]}},{"type":"Feature","properties":{"species_code":"yebsap-example","season":"breeding","start_year":2012,"end_year":2022,"start_date":"05-24","end_date":"08-16","srd_id":291880,"longitude":-85.4583807,"latitude":43.3576627,"abd":0.0408921,"abd_ppy":0.1883334,"abd_ppy_lower":-1.4498789,"abd_ppy_upper":0.7930499,"abd_ppy_nonzero":false,"abd_trend":1.8993757,"abd_trend_lower":-13.5884841,"abd_trend_upper":8.2195863,"regions":["south"]},"geometry":{"type":"Polygon","coordinates":[[[-85.79301,43.47757],[-85.46254,43.47757],[-85.12545,43.23776],[-85.45462,43.23776],[-85.79301,43.47757]]]}},{"type":"Feature","properties":{"species_code":"yebsap-example","season":"breeding","start_year":2012,"end_year":2022,"start_date":"05-24","end_date":"08-16","srd_id":291881,"longitude":-85.1285608,"latitude":43.3576627,"abd":0.0058701,"abd_ppy":-0.8342812,"abd_ppy_lower":-3.4035998,"abd_ppy_upper":0.8325751,"abd_ppy_nonzero":false,"abd_trend":-8.0364685,"abd_trend_lower":-29.2690614,"abd_trend_upper":8.6447099,"regions":["south"]},"geometry":{"type":"Polygon","coordinates":[[[-85.46254,43.47757],[-85.13206,43.47757],[-84.79628,43.23776],[-85.12545,43.23776],[-85.46254,43.47757]]]}},{"type":"Feature","properties":{"species_code":"yebsap-example","season":"breeding","start_year":2012,"end_year":2022,"start_date":"05-24","end_date":"08-16","srd_id":291882,"longitude":-84.7987409,"latitude":43.3576627,"abd":0.0119068,"abd_ppy":0.5651478,"abd_ppy_lower":-1.110381,"abd_ppy_upper":3.3665786,"abd_ppy_nonzero":false,"abd_trend":5.7973923,"abd_trend_lower":-10.5650974,"abd_trend_upper":39.251992,"regions":["south"]},"geometry":{"type":"Polygon","coordinates":[[[-85.13206,43.47757],[-84.80159,43.47757],[-84.46711,43.23776],[-84.79628,43.23776],[-85.13206,43.47757]]]}},{"type":"Feature","properties":{"species_code":"yebsap-example","season":"breeding","start_year":2012,"end_year":2022,"start_date":"05-24","end_date":"08-16","srd_id":291883,"longitude":-84.468921,"latitude":43.3576627,"abd":0.0235345,"abd_ppy":4.4290417,"abd_ppy_lower":1.1624867,"abd_ppy_upper":7.0873447,"abd_ppy_nonzero":true,"abd_trend":54.2456501,"abd_trend_lower":12.2522267,"abd_trend_upper":98.3268449,"regions":["south"]},"geometry":{"type":"Polygon","coordinates":[[[-84.80159,43.47757],[-84.47111,43.47757],[-84.13793,43.23776],[-84.46711,43.23776],[-84.80159,43.47757]]]}},{"type":"Feature","properties":{"species_code":"yebsap-example","season":"breeding","start_year":2012,"end_year":2022,"start_date":"05-24","end_date":"08-16","srd_id":291884,"longitude":-84.1391011,"latitude":43.3576627,"abd":0.0204337,"abd_ppy":1.702731,"abd_ppy_lower":0.4443674,"abd_ppy_upper":3.3918867,"abd_ppy_nonzero":true,"abd_trend":18.3930339,"abd_trend_lower":4.5335933,"abd_trend_upper":39.593309,"regions":["south"]},"geometry":{"type":"Polygon","coordinates":[[[-84.47111,43.47757],[-84.14064,43.47757],[-83.80876,43.23776],[-84.13793,43.23776],[-84.47111,43.47757]]]}},{"type":"Feature","properties":{"species_code":"yebsap-example","season":"breeding","start_year":2012,"end_year":2022,"start_date":"05-24","end_date":"08-16","srd_id":291886,"longitude":-83.4794613,"latitude":43.3576627,"abd":0.0150334,"abd_ppy":0.7928768,"abd_ppy_lower":-1.8117051,"abd_ppy_upper":1.5194907,"abd_ppy_nonzero":false,"abd_trend":8.2177277,"abd_trend_lower":-16.7091711,"abd_trend_upper":16.27713,"regions":["south"]},"geometry":{"type":"Polygon","coordinates":[[[-83.81017,43.47757],[-83.47969,43.47757],[-83.15042,43.23776],[-83.47959,43.23776],[-83.81017,43.47757]]]}},{"type":"Feature","properties":{"species_code":"yebsap-example","season":"breeding","start_year":2012,"end_year":2022,"start_date":"05-24","end_date":"08-16","srd_id":291887,"longitude":-83.1496414,"latitude":43.3576627,"abd":0.0174287,"abd_ppy":3.5481019,"abd_ppy_lower":1.5879469,"abd_ppy_upper":5.6043914,"abd_ppy_nonzero":true,"abd_trend":41.716828,"abd_trend_lower":17.0635881,"abd_trend_upper":72.5121876,"regions":["south"]},"geometry":{"type":"Polygon","coordinates":[[[-83.47969,43.47757],[-83.14922,43.47757],[-82.82125,43.23776],[-83.15042,43.23776],[-83.47969,43.47757]]]}},{"type":"Feature","properties":{"species_code":"yebsap-example","season":"breeding","start_year":2012,"end_year":2022,"start_date":"05-24","end_date":"08-16","srd_id":291888,"longitude":-82.8198215,"latitude":43.3576627,"abd":0.0028926,"abd_ppy":2.3154495,"abd_ppy_lower":1.6601511,"abd_ppy_upper":6.2284513,"abd_ppy_nonzero":true,"abd_trend":25.722256,"abd_trend_lower":17.8982906,"abd_trend_upper":82.9820545,"regions":["south"]},"geometry":{"type":"Polygon","coordinates":[[[-83.14922,43.47757],[-82.81875,43.47757],[-82.49208,43.23776],[-82.82125,43.23776],[-83.14922,43.47757]]]}},{"type":"Feature","properties":{"species_code":"yebsap-example","season":"breeding","start_year":2012,"end_year":2022,"start_date":"05-24","end_date":"08-16","srd_id":293381,"longitude":-85.4512389,"latitude":43.1178563,"abd":0.0011891,"abd_ppy":0.1397221,"abd_ppy_lower":-2.2284397,"abd_ppy_upper":1.2136375,"abd_ppy_nonzero":false,"abd_trend":1.4060392,"abd_trend_lower":-20.1774754,"abd_trend_upper":12.8211007,"regions":["south"]},"geometry":{"type":"Polygon","coordinates":[[[-85.78379,43.23776],[-85.45462,43.23776],[-85.12037,42.99795],[-85.44825,42.99795],[-85.78379,43.23776]]]}},{"type":"Feature","properties":{"species_code":"yebsap-example","season":"breeding","start_year":2012,"end_year":2022,"start_date":"05-24","end_date":"08-16","srd_id":293382,"longitude":-85.1227145,"latitude":43.1178563,"abd":0.009268,"abd_ppy":0.1447292,"abd_ppy_lower":-2.2754094,"abd_ppy_upper":2.9830649,"abd_ppy_nonzero":false,"abd_trend":1.4567549,"abd_trend_lower":-20.5601166,"abd_trend_upper":34.1708369,"regions":["south"]},"geometry":{"type":"Polygon","coordinates":[[[-85.45462,43.23776],[-85.12545,43.23776],[-84.79248,42.99795],[-85.12037,42.99795],[-85.45462,43.23776]]]}},{"type":"Feature","properties":{"species_code":"yebsap-example","season":"breeding","start_year":2012,"end_year":2022,"start_date":"05-24","end_date":"08-16","srd_id":293383,"longitude":-84.79419,"latitude":43.1178563,"abd":0.0006976,"abd_ppy":4.2871561,"abd_ppy_lower":0.9190107,"abd_ppy_upper":6.3302988,"abd_ppy_nonzero":true,"abd_trend":52.1627131,"abd_trend_lower":9.5796334,"abd_trend_upper":84.7440009,"regions":["south"]},"geometry":{"type":"Polygon","coordinates":[[[-85.12545,43.23776],[-84.79628,43.23776],[-84.4646,42.99795],[-84.79248,42.99795],[-85.12545,43.23776]]]}},{"type":"Feature","properties":{"species_code":"yebsap-example","season":"breeding","start_year":2012,"end_year":2022,"start_date":"05-24","end_date":"08-16","srd_id":293384,"longitude":-84.4656656,"latitude":43.1178563,"abd":0.0019501,"abd_ppy":5.0329701,"abd_ppy_lower":3.4884626,"abd_ppy_upper":8.14514,"abd_ppy_nonzero":true,"abd_trend":63.4016611,"abd_trend_lower":40.9027119,"abd_trend_upper":118.8114638,"regions":["south"]},"geometry":{"type":"Polygon","coordinates":[[[-84.79628,43.23776],[-84.46711,43.23776],[-84.13672,42.99795],[-84.4646,42.99795],[-84.79628,43.23776]]]}},{"type":"Feature","properties":{"species_code":"yebsap-example","season":"breeding","start_year":2012,"end_year":2022,"start_date":"05-24","end_date":"08-16","srd_id":293385,"longitude":-84.1371412,"latitude":43.1178563,"abd":0.0143404,"abd_ppy":2.7636846,"abd_ppy_lower":0.1889269,"abd_ppy_upper":5.3431252,"abd_ppy_nonzero":true,"abd_trend":31.3398981,"abd_trend_lower":1.9054125,"abd_trend_upper":68.2914235,"regions":["south"]},"geometry":{"type":"Polygon","coordinates":[[[-84.46711,43.23776],[-84.13793,43.23776],[-83.80884,42.99795],[-84.13672,42.99795],[-84.46711,43.23776]]]}},{"type":"Feature","properties":{"species_code":"yebsap-example","season":"breeding","start_year":2012,"end_year":2022,"start_date":"05-24","end_date":"08-16","srd_id":293386,"longitude":-83.8086168,"latitude":43.1178563,"abd":0.0015676,"abd_ppy":2.3328023,"abd_ppy_lower":-0.4479813,"abd_ppy_upper":5.3270323,"abd_ppy_nonzero":false,"abd_trend":25.9356456,"abd_trend_lower":-4.3905741,"abd_trend_upper":68.0345073,"regions":["south"]},"geometry":{"type":"Polygon","coordinates":[[[-84.13793,43.23776],[-83.80876,43.23776],[-83.48095,42.99795],[-83.80884,42.99795],[-84.13793,43.23776]]]}},{"type":"Feature","properties":{"species_code":"yebsap-example","season":"breeding","start_year":2012,"end_year":2022,"start_date":"05-24","end_date":"08-16","srd_id":293387,"longitude":-83.4800923,"latitude":43.1178563,"abd":0.0003991,"abd_ppy":1.3624142,"abd_ppy_lower":-0.2984201,"abd_ppy_upper":2.2462206,"abd_ppy_nonzero":false,"abd_trend":14.4905017,"abd_trend_lower":-2.9444438,"abd_trend_upper":24.874177,"regions":["south"]},"geometry":{"type":"Polygon","coordinates":[[[-83.80876,43.23776],[-83.47959,43.23776],[-83.15307,42.99795],[-83.48095,42.99795],[-83.80876,43.23776]]]}},{"type":"Feature","properties":{"species_code":"yebsap-example","season":"breeding","start_year":2012,"end_year":2022,"start_date":"05-24","end_date":"08-16","srd_id":293388,"longitude":-83.1515679,"latitude":43.1178563,"abd":0.0014236,"abd_ppy":3.5582517,"abd_ppy_lower":1.7458649,"abd_ppy_upper":5.9127044,"abd_ppy_nonzero":true,"abd_trend":41.855801,"abd_trend_lower":18.8961195,"abd_trend_upper":77.6153818,"regions":["south"]},"geometry":{"type":"Polygon","coordinates":[[[-83.47959,43.23776],[-83.15042,43.23776],[-82.82519,42.99795],[-83.15307,42.99795],[-83.47959,43.23776]]]}},{"type":"Feature","properties":{"species_code":"yebsap-example","season":"breeding","start_year":2012,"end_year":2022,"start_date":"05-24","end_date":"08-16","srd_id":293389,"longitude":-82.8230435,"latitude":43.1178563,"abd":0.0019243,"abd_ppy":3.4300171,"abd_ppy_lower":2.178285,"abd_ppy_upper":7.1878337,"abd_ppy_nonzero":true,"abd_trend":40.108978,"abd_trend_lower":24.0469494,"abd_trend_upper":100.1957884,"regions":["south"]},"geometry":{"type":"Polygon","coordinates":[[[-83.15042,43.23776],[-82.82125,43.23776],[-82.49731,42.99795],[-82.82519,42.99795],[-83.15042,43.23776]]]}},{"type":"Feature","properties":{"species_code":"yebsap-example","season":"breeding","start_year":2012,"end_year":2022,"start_date":"05-24","end_date":"08-16","srd_id":293390,"longitude":-82.4945191,"latitude":43.1178563,"abd":0.0063234,"abd_ppy":1.1703725,"abd_ppy_lower":0.0945127,"abd_ppy_upper":2.438129,"abd_ppy_nonzero":true,"abd_trend":12.3397595,"abd_trend_lower":0.9491569,"abd_trend_upper":27.237866,"regions":["south"]},"geometry":{"type":"Polygon","coordinates":[[[-82.49731,42.99795],[-82.82125,43.23776],[-82.49208,43.23776],[-82.36836,43.14592],[-82.40819,43.07264],[-82.41723,43.01738],[-82.42217,42.99795],[-82.49731,42.99795]]]}},{"type":"Feature","properties":{"species_code":"yebsap-example","season":"breeding","start_year":2012,"end_year":2022,"start_date":"05-24","end_date":"08-16","srd_id":294891,"longitude":-82.5004408,"latitude":42.87805,"abd":0.0012217,"abd_ppy":1.5159256,"abd_ppy_lower":0.0810188,"abd_ppy_upper":6.3209547,"abd_ppy_nonzero":true,"abd_trend":16.2363024,"abd_trend_lower":0.8131482,"abd_trend_upper":84.5817149,"regions":["south"]},"geometry":{"type":"Polygon","coordinates":[[[-82.50392,42.75815],[-82.82519,42.99795],[-82.49731,42.99795],[-82.43418,42.95072],[-82.48354,42.75815],[-82.50392,42.75815]]]}}]}